{"type":"FeatureCollection","name":"2005 foundation report concentrations","description":"Coarse relative-density cells generalized from USACE Figure 23; no household locations.","generated":"2026-08-03","features":[{"type":"Feature","geometry":{"type":"Polygon","coordinates":[[[-78.72707062710631,43.04864739919559],[-78.72707062710631,43.05498374650541],[-78.71947987798607,43.05498374650541],[-78.71947987798607,43.04864739919559],[-78.72707062710631,43.04864739919559]]]},"properties":{"feature_id":"usace-density-010","layer_type":"2005_report_symbol_density","density_class":"moderate","symbol_pixels":429,"permit_color_pixels":83,"inquiry_color_pixels":346,"report_totals":"501 repair permits (1987-2004); 594 inquiries (2000-March 2005)","source_id":"usace-2005-figure-23","confidence":"agency_map_approximation","privacy_treatment":"Household points replaced with coarse relative-density cells","boundary_note":"Approximate affine alignment from the published report figure","causal_claim":"none","last_reviewed":"2026-08-03"}},{"type":"Feature","geometry":{"type":"Polygon","coordinates":[[[-78.72707062710631,43.04218173867537],[-78.72707062710631,43.04864739919559],[-78.71947987798607,43.04864739919559],[-78.71947987798607,43.04218173867537],[-78.72707062710631,43.04218173867537]]]},"properties":{"feature_id":"usace-density-014","layer_type":"2005_report_symbol_density","density_class":"higher","symbol_pixels":1345,"permit_color_pixels":817,"inquiry_color_pixels":528,"report_totals":"501 repair permits (1987-2004); 594 inquiries (2000-March 2005)","source_id":"usace-2005-figure-23","confidence":"agency_map_approximation","privacy_treatment":"Household points replaced with coarse relative-density cells","boundary_note":"Approximate affine alignment from the published report figure","causal_claim":"none","last_reviewed":"2026-08-03"}},{"type":"Feature","geometry":{"type":"Polygon","coordinates":[[[-78.71947987798607,43.04218173867537],[-78.71947987798607,43.04864739919559],[-78.71205781217961,43.04864739919559],[-78.71205781217961,43.04218173867537],[-78.71947987798607,43.04218173867537]]]},"properties":{"feature_id":"usace-density-015","layer_type":"2005_report_symbol_density","density_class":"moderate","symbol_pixels":209,"permit_color_pixels":120,"inquiry_color_pixels":89,"report_totals":"501 repair permits (1987-2004); 594 inquiries (2000-March 2005)","source_id":"usace-2005-figure-23","confidence":"agency_map_approximation","privacy_treatment":"Household points replaced with coarse relative-density cells","boundary_note":"Approximate affine alignment from the published report figure","causal_claim":"none","last_reviewed":"2026-08-03"}},{"type":"Feature","geometry":{"type":"Polygon","coordinates":[[[-78.71205781217961,43.04218173867537],[-78.71205781217961,43.04864739919559],[-78.70446706305937,43.04864739919559],[-78.70446706305937,43.04218173867537],[-78.71205781217961,43.04218173867537]]]},"properties":{"feature_id":"usace-density-016","layer_type":"2005_report_symbol_density","density_class":"higher","symbol_pixels":616,"permit_color_pixels":192,"inquiry_color_pixels":424,"report_totals":"501 repair permits (1987-2004); 594 inquiries (2000-March 2005)","source_id":"usace-2005-figure-23","confidence":"agency_map_approximation","privacy_treatment":"Household points replaced with coarse relative-density cells","boundary_note":"Approximate affine alignment from the published report figure","causal_claim":"none","last_reviewed":"2026-08-03"}},{"type":"Feature","geometry":{"type":"Polygon","coordinates":[[[-78.74208344203302,43.03571607815514],[-78.74208344203302,43.04218173867537],[-78.73466137622655,43.04218173867537],[-78.73466137622655,43.03571607815514],[-78.74208344203302,43.03571607815514]]]},"properties":{"feature_id":"usace-density-021","layer_type":"2005_report_symbol_density","density_class":"moderate","symbol_pixels":338,"permit_color_pixels":152,"inquiry_color_pixels":186,"report_totals":"501 repair permits (1987-2004); 594 inquiries (2000-March 2005)","source_id":"usace-2005-figure-23","confidence":"agency_map_approximation","privacy_treatment":"Household points replaced with coarse relative-density cells","boundary_note":"Approximate affine alignment from the published report figure","causal_claim":"none","last_reviewed":"2026-08-03"}},{"type":"Feature","geometry":{"type":"Polygon","coordinates":[[[-78.73466137622655,43.03571607815514],[-78.73466137622655,43.04218173867537],[-78.72707062710631,43.04218173867537],[-78.72707062710631,43.03571607815514],[-78.73466137622655,43.03571607815514]]]},"properties":{"feature_id":"usace-density-022","layer_type":"2005_report_symbol_density","density_class":"higher","symbol_pixels":530,"permit_color_pixels":239,"inquiry_color_pixels":291,"report_totals":"501 repair permits (1987-2004); 594 inquiries (2000-March 2005)","source_id":"usace-2005-figure-23","confidence":"agency_map_approximation","privacy_treatment":"Household points replaced with coarse relative-density cells","boundary_note":"Approximate affine alignment from the published report figure","causal_claim":"none","last_reviewed":"2026-08-03"}},{"type":"Feature","geometry":{"type":"Polygon","coordinates":[[[-78.72707062710631,43.03571607815514],[-78.72707062710631,43.04218173867537],[-78.71947987798607,43.04218173867537],[-78.71947987798607,43.03571607815514],[-78.72707062710631,43.03571607815514]]]},"properties":{"feature_id":"usace-density-023","layer_type":"2005_report_symbol_density","density_class":"higher","symbol_pixels":598,"permit_color_pixels":390,"inquiry_color_pixels":208,"report_totals":"501 repair permits (1987-2004); 594 inquiries (2000-March 2005)","source_id":"usace-2005-figure-23","confidence":"agency_map_approximation","privacy_treatment":"Household points replaced with coarse relative-density cells","boundary_note":"Approximate affine alignment from the published report figure","causal_claim":"none","last_reviewed":"2026-08-03"}},{"type":"Feature","geometry":{"type":"Polygon","coordinates":[[[-78.71947987798607,43.03571607815514],[-78.71947987798607,43.04218173867537],[-78.71205781217961,43.04218173867537],[-78.71205781217961,43.03571607815514],[-78.71947987798607,43.03571607815514]]]},"properties":{"feature_id":"usace-density-024","layer_type":"2005_report_symbol_density","density_class":"higher","symbol_pixels":607,"permit_color_pixels":406,"inquiry_color_pixels":201,"report_totals":"501 repair permits (1987-2004); 594 inquiries (2000-March 2005)","source_id":"usace-2005-figure-23","confidence":"agency_map_approximation","privacy_treatment":"Household points replaced with coarse relative-density cells","boundary_note":"Approximate affine alignment from the published report figure","causal_claim":"none","last_reviewed":"2026-08-03"}},{"type":"Feature","geometry":{"type":"Polygon","coordinates":[[[-78.71205781217961,43.03571607815514],[-78.71205781217961,43.04218173867537],[-78.70446706305937,43.04218173867537],[-78.70446706305937,43.03571607815514],[-78.71205781217961,43.03571607815514]]]},"properties":{"feature_id":"usace-density-025","layer_type":"2005_report_symbol_density","density_class":"moderate","symbol_pixels":197,"permit_color_pixels":124,"inquiry_color_pixels":73,"report_totals":"501 repair permits (1987-2004); 594 inquiries (2000-March 2005)","source_id":"usace-2005-figure-23","confidence":"agency_map_approximation","privacy_treatment":"Household points replaced with coarse relative-density cells","boundary_note":"Approximate affine alignment from the published report figure","causal_claim":"none","last_reviewed":"2026-08-03"}},{"type":"Feature","geometry":{"type":"Polygon","coordinates":[[[-78.77227775520021,43.02937973084533],[-78.77227775520021,43.03571607815514],[-78.76468700607995,43.03571607815514],[-78.76468700607995,43.02937973084533],[-78.77227775520021,43.02937973084533]]]},"properties":{"feature_id":"usace-density-030","layer_type":"2005_report_symbol_density","density_class":"moderate","symbol_pixels":239,"permit_color_pixels":70,"inquiry_color_pixels":169,"report_totals":"501 repair permits (1987-2004); 594 inquiries (2000-March 2005)","source_id":"usace-2005-figure-23","confidence":"agency_map_approximation","privacy_treatment":"Household points replaced with coarse relative-density cells","boundary_note":"Approximate affine alignment from the published report figure","causal_claim":"none","last_reviewed":"2026-08-03"}},{"type":"Feature","geometry":{"type":"Polygon","coordinates":[[[-78.74208344203302,43.02937973084533],[-78.74208344203302,43.03571607815514],[-78.73466137622655,43.03571607815514],[-78.73466137622655,43.02937973084533],[-78.74208344203302,43.02937973084533]]]},"properties":{"feature_id":"usace-density-033","layer_type":"2005_report_symbol_density","density_class":"moderate","symbol_pixels":174,"permit_color_pixels":0,"inquiry_color_pixels":174,"report_totals":"501 repair permits (1987-2004); 594 inquiries (2000-March 2005)","source_id":"usace-2005-figure-23","confidence":"agency_map_approximation","privacy_treatment":"Household points replaced with coarse relative-density cells","boundary_note":"Approximate affine alignment from the published report figure","causal_claim":"none","last_reviewed":"2026-08-03"}},{"type":"Feature","geometry":{"type":"Polygon","coordinates":[[[-78.70446706305937,43.02937973084533],[-78.70446706305937,43.03571607815514],[-78.69695934252863,43.03571607815514],[-78.69696017815266,43.03516515959479],[-78.69696143605417,43.03456975069781],[-78.69696223588927,43.034253168613695],[-78.69695741199283,43.03340226163574],[-78.6969573594505,43.03337378089072],[-78.6969538851119,43.032767757940626],[-78.6969461468977,43.03135058496973],[-78.69694766967935,43.03065538282204],[-78.69694801570738,43.03033605715503],[-78.69694903423961,43.02987440904511],[-78.69694996161529,43.02937973084533],[-78.70446706305937,43.02937973084533]]]},"properties":{"feature_id":"usace-density-036","layer_type":"2005_report_symbol_density","density_class":"moderate","symbol_pixels":180,"permit_color_pixels":74,"inquiry_color_pixels":106,"report_totals":"501 repair permits (1987-2004); 594 inquiries (2000-March 2005)","source_id":"usace-2005-figure-23","confidence":"agency_map_approximation","privacy_treatment":"Household points replaced with coarse relative-density cells","boundary_note":"Approximate affine alignment from the published report figure","causal_claim":"none","last_reviewed":"2026-08-03"}},{"type":"Feature","geometry":{"type":"Polygon","coordinates":[[[-78.74967419115326,43.0229140703251],[-78.74967419115326,43.02937973084533],[-78.74208344203302,43.02937973084533],[-78.74208344203302,43.0229140703251],[-78.74967419115326,43.0229140703251]]]},"properties":{"feature_id":"usace-density-040","layer_type":"2005_report_symbol_density","density_class":"moderate","symbol_pixels":237,"permit_color_pixels":73,"inquiry_color_pixels":164,"report_totals":"501 repair permits (1987-2004); 594 inquiries (2000-March 2005)","source_id":"usace-2005-figure-23","confidence":"agency_map_approximation","privacy_treatment":"Household points replaced with coarse relative-density cells","boundary_note":"Approximate affine alignment from the published report figure","causal_claim":"none","last_reviewed":"2026-08-03"}},{"type":"Feature","geometry":{"type":"Polygon","coordinates":[[[-78.71947987798607,43.0229140703251],[-78.71947987798607,43.02937973084533],[-78.71205781217961,43.02937973084533],[-78.71205781217961,43.0229140703251],[-78.71947987798607,43.0229140703251]]]},"properties":{"feature_id":"usace-density-043","layer_type":"2005_report_symbol_density","density_class":"moderate","symbol_pixels":325,"permit_color_pixels":114,"inquiry_color_pixels":211,"report_totals":"501 repair permits (1987-2004); 594 inquiries (2000-March 2005)","source_id":"usace-2005-figure-23","confidence":"agency_map_approximation","privacy_treatment":"Household points replaced with coarse relative-density cells","boundary_note":"Approximate affine alignment from the published report figure","causal_claim":"none","last_reviewed":"2026-08-03"}},{"type":"Feature","geometry":{"type":"Polygon","coordinates":[[[-78.71205781217961,43.0229140703251],[-78.71205781217961,43.02937973084533],[-78.70446706305937,43.02937973084533],[-78.70446706305937,43.0229140703251],[-78.71205781217961,43.0229140703251]]]},"properties":{"feature_id":"usace-density-044","layer_type":"2005_report_symbol_density","density_class":"higher","symbol_pixels":637,"permit_color_pixels":309,"inquiry_color_pixels":328,"report_totals":"501 repair permits (1987-2004); 594 inquiries (2000-March 2005)","source_id":"usace-2005-figure-23","confidence":"agency_map_approximation","privacy_treatment":"Household points replaced with coarse relative-density cells","boundary_note":"Approximate affine alignment from the published report figure","causal_claim":"none","last_reviewed":"2026-08-03"}},{"type":"Feature","geometry":{"type":"Polygon","coordinates":[[[-78.70446706305937,43.0229140703251],[-78.70446706305937,43.02937973084533],[-78.69694996161529,43.02937973084533],[-78.69694997685124,43.02937160372297],[-78.6969142283527,43.029009812087445],[-78.69693325498292,43.02740224555234],[-78.69694865441824,43.0261198520726],[-78.69694861454381,43.026098230824296],[-78.69694808672777,43.024291097476144],[-78.69694783831493,43.023649400705644],[-78.69694748319027,43.02321346300836],[-78.69694751144701,43.02296514729631],[-78.6969475094991,43.0229140703251],[-78.70446706305937,43.0229140703251]]]},"properties":{"feature_id":"usace-density-045","layer_type":"2005_report_symbol_density","density_class":"moderate","symbol_pixels":178,"permit_color_pixels":47,"inquiry_color_pixels":131,"report_totals":"501 repair permits (1987-2004); 594 inquiries (2000-March 2005)","source_id":"usace-2005-figure-23","confidence":"agency_map_approximation","privacy_treatment":"Household points replaced with coarse relative-density cells","boundary_note":"Approximate affine alignment from the published report figure","causal_claim":"none","last_reviewed":"2026-08-03"}},{"type":"Feature","geometry":{"type":"Polygon","coordinates":[[[-78.81748488329409,43.0229140703251],[-78.81748488329409,43.01644840980488],[-78.82225505389958,43.01644840980488],[-78.82225259408506,43.01684211073845],[-78.82224576032283,43.017731809025086],[-78.82223376141475,43.01873604502298],[-78.82223280052584,43.018854717263885],[-78.82221817862312,43.020629313376915],[-78.82220858330119,43.021771448192695],[-78.8221992083044,43.0229140703251],[-78.81748488329409,43.0229140703251]]]},"properties":{"feature_id":"usace-density-046","layer_type":"2005_report_symbol_density","density_class":"moderate","symbol_pixels":230,"permit_color_pixels":0,"inquiry_color_pixels":230,"report_totals":"501 repair permits (1987-2004); 594 inquiries (2000-March 2005)","source_id":"usace-2005-figure-23","confidence":"agency_map_approximation","privacy_treatment":"Household points replaced with coarse relative-density cells","boundary_note":"Approximate affine alignment from the published report figure","causal_claim":"none","last_reviewed":"2026-08-03"}},{"type":"Feature","geometry":{"type":"Polygon","coordinates":[[[-78.81748488329409,43.01644840980488],[-78.81748488329409,43.0229140703251],[-78.80989413417385,43.0229140703251],[-78.80989413417385,43.01644840980488],[-78.81748488329409,43.01644840980488]]]},"properties":{"feature_id":"usace-density-047","layer_type":"2005_report_symbol_density","density_class":"moderate","symbol_pixels":358,"permit_color_pixels":5,"inquiry_color_pixels":353,"report_totals":"501 repair permits (1987-2004); 594 inquiries (2000-March 2005)","source_id":"usace-2005-figure-23","confidence":"agency_map_approximation","privacy_treatment":"Household points replaced with coarse relative-density cells","boundary_note":"Approximate affine alignment from the published report figure","causal_claim":"none","last_reviewed":"2026-08-03"}},{"type":"Feature","geometry":{"type":"Polygon","coordinates":[[[-78.80989413417385,43.01644840980488],[-78.80989413417385,43.0229140703251],[-78.8024720683674,43.0229140703251],[-78.8024720683674,43.01644840980488],[-78.80989413417385,43.01644840980488]]]},"properties":{"feature_id":"usace-density-048","layer_type":"2005_report_symbol_density","density_class":"moderate","symbol_pixels":265,"permit_color_pixels":121,"inquiry_color_pixels":144,"report_totals":"501 repair permits (1987-2004); 594 inquiries (2000-March 2005)","source_id":"usace-2005-figure-23","confidence":"agency_map_approximation","privacy_treatment":"Household points replaced with coarse relative-density cells","boundary_note":"Approximate affine alignment from the published report figure","causal_claim":"none","last_reviewed":"2026-08-03"}},{"type":"Feature","geometry":{"type":"Polygon","coordinates":[[[-78.7872905701269,43.01644840980488],[-78.7872905701269,43.0229140703251],[-78.77986850432045,43.0229140703251],[-78.77986850432045,43.01644840980488],[-78.7872905701269,43.01644840980488]]]},"properties":{"feature_id":"usace-density-050","layer_type":"2005_report_symbol_density","density_class":"higher","symbol_pixels":561,"permit_color_pixels":263,"inquiry_color_pixels":298,"report_totals":"501 repair permits (1987-2004); 594 inquiries (2000-March 2005)","source_id":"usace-2005-figure-23","confidence":"agency_map_approximation","privacy_treatment":"Household points replaced with coarse relative-density cells","boundary_note":"Approximate affine alignment from the published report figure","causal_claim":"none","last_reviewed":"2026-08-03"}},{"type":"Feature","geometry":{"type":"Polygon","coordinates":[[[-78.77986850432045,43.01644840980488],[-78.77986850432045,43.0229140703251],[-78.77227775520021,43.0229140703251],[-78.77227775520021,43.01644840980488],[-78.77986850432045,43.01644840980488]]]},"properties":{"feature_id":"usace-density-051","layer_type":"2005_report_symbol_density","density_class":"moderate","symbol_pixels":429,"permit_color_pixels":295,"inquiry_color_pixels":134,"report_totals":"501 repair permits (1987-2004); 594 inquiries (2000-March 2005)","source_id":"usace-2005-figure-23","confidence":"agency_map_approximation","privacy_treatment":"Household points replaced with coarse relative-density cells","boundary_note":"Approximate affine alignment from the published report figure","causal_claim":"none","last_reviewed":"2026-08-03"}},{"type":"Feature","geometry":{"type":"Polygon","coordinates":[[[-78.7572649402735,43.01644840980488],[-78.7572649402735,43.0229140703251],[-78.74967419115326,43.0229140703251],[-78.74967419115326,43.01644840980488],[-78.7572649402735,43.01644840980488]]]},"properties":{"feature_id":"usace-density-054","layer_type":"2005_report_symbol_density","density_class":"higher","symbol_pixels":635,"permit_color_pixels":183,"inquiry_color_pixels":452,"report_totals":"501 repair permits (1987-2004); 594 inquiries (2000-March 2005)","source_id":"usace-2005-figure-23","confidence":"agency_map_approximation","privacy_treatment":"Household points replaced with coarse relative-density cells","boundary_note":"Approximate affine alignment from the published report figure","causal_claim":"none","last_reviewed":"2026-08-03"}},{"type":"Feature","geometry":{"type":"Polygon","coordinates":[[[-78.74967419115326,43.01644840980488],[-78.74967419115326,43.0229140703251],[-78.74208344203302,43.0229140703251],[-78.74208344203302,43.01644840980488],[-78.74967419115326,43.01644840980488]]]},"properties":{"feature_id":"usace-density-055","layer_type":"2005_report_symbol_density","density_class":"higher","symbol_pixels":604,"permit_color_pixels":299,"inquiry_color_pixels":305,"report_totals":"501 repair permits (1987-2004); 594 inquiries (2000-March 2005)","source_id":"usace-2005-figure-23","confidence":"agency_map_approximation","privacy_treatment":"Household points replaced with coarse relative-density cells","boundary_note":"Approximate affine alignment from the published report figure","causal_claim":"none","last_reviewed":"2026-08-03"}},{"type":"Feature","geometry":{"type":"Polygon","coordinates":[[[-78.73466137622655,43.01644840980488],[-78.73466137622655,43.0229140703251],[-78.72707062710631,43.0229140703251],[-78.72707062710631,43.01644840980488],[-78.73466137622655,43.01644840980488]]]},"properties":{"feature_id":"usace-density-057","layer_type":"2005_report_symbol_density","density_class":"moderate","symbol_pixels":266,"permit_color_pixels":75,"inquiry_color_pixels":191,"report_totals":"501 repair permits (1987-2004); 594 inquiries (2000-March 2005)","source_id":"usace-2005-figure-23","confidence":"agency_map_approximation","privacy_treatment":"Household points replaced with coarse relative-density cells","boundary_note":"Approximate affine alignment from the published report figure","causal_claim":"none","last_reviewed":"2026-08-03"}},{"type":"Feature","geometry":{"type":"Polygon","coordinates":[[[-78.72707062710631,43.01644840980488],[-78.72707062710631,43.0229140703251],[-78.71947987798607,43.0229140703251],[-78.71947987798607,43.01644840980488],[-78.72707062710631,43.01644840980488]]]},"properties":{"feature_id":"usace-density-058","layer_type":"2005_report_symbol_density","density_class":"moderate","symbol_pixels":325,"permit_color_pixels":39,"inquiry_color_pixels":286,"report_totals":"501 repair permits (1987-2004); 594 inquiries (2000-March 2005)","source_id":"usace-2005-figure-23","confidence":"agency_map_approximation","privacy_treatment":"Household points replaced with coarse relative-density cells","boundary_note":"Approximate affine alignment from the published report figure","causal_claim":"none","last_reviewed":"2026-08-03"}},{"type":"Feature","geometry":{"type":"Polygon","coordinates":[[[-78.71947987798607,43.01644840980488],[-78.71947987798607,43.0229140703251],[-78.71205781217961,43.0229140703251],[-78.71205781217961,43.01644840980488],[-78.71947987798607,43.01644840980488]]]},"properties":{"feature_id":"usace-density-059","layer_type":"2005_report_symbol_density","density_class":"higher","symbol_pixels":506,"permit_color_pixels":325,"inquiry_color_pixels":181,"report_totals":"501 repair permits (1987-2004); 594 inquiries (2000-March 2005)","source_id":"usace-2005-figure-23","confidence":"agency_map_approximation","privacy_treatment":"Household points replaced with coarse relative-density cells","boundary_note":"Approximate affine alignment from the published report figure","causal_claim":"none","last_reviewed":"2026-08-03"}},{"type":"Feature","geometry":{"type":"Polygon","coordinates":[[[-78.71205781217961,43.01644840980488],[-78.71205781217961,43.0229140703251],[-78.70446706305937,43.0229140703251],[-78.70446706305937,43.01644840980488],[-78.71205781217961,43.01644840980488]]]},"properties":{"feature_id":"usace-density-060","layer_type":"2005_report_symbol_density","density_class":"higher","symbol_pixels":856,"permit_color_pixels":452,"inquiry_color_pixels":404,"report_totals":"501 repair permits (1987-2004); 594 inquiries (2000-March 2005)","source_id":"usace-2005-figure-23","confidence":"agency_map_approximation","privacy_treatment":"Household points replaced with coarse relative-density cells","boundary_note":"Approximate affine alignment from the published report figure","causal_claim":"none","last_reviewed":"2026-08-03"}},{"type":"Feature","geometry":{"type":"Polygon","coordinates":[[[-78.81748488329409,43.01644840980488],[-78.81748488329409,43.01011206249506],[-78.82230877874471,43.01011206249506],[-78.82230649673947,43.01061763595618],[-78.82230287715733,43.01148743578055],[-78.82230252013471,43.01152071911074],[-78.82229931653416,43.01177452951026],[-78.82229676420899,43.01196487389573],[-78.82229110661149,43.01243440880825],[-78.82228470439304,43.01295300479687],[-78.82227860732489,43.013424955109436],[-78.82226440813082,43.01495123611812],[-78.82225505389958,43.01644840980488],[-78.81748488329409,43.01644840980488]]]},"properties":{"feature_id":"usace-density-062","layer_type":"2005_report_symbol_density","density_class":"moderate","symbol_pixels":335,"permit_color_pixels":242,"inquiry_color_pixels":93,"report_totals":"501 repair permits (1987-2004); 594 inquiries (2000-March 2005)","source_id":"usace-2005-figure-23","confidence":"agency_map_approximation","privacy_treatment":"Household points replaced with coarse relative-density cells","boundary_note":"Approximate affine alignment from the published report figure","causal_claim":"none","last_reviewed":"2026-08-03"}},{"type":"Feature","geometry":{"type":"Polygon","coordinates":[[[-78.81748488329409,43.01011206249506],[-78.81748488329409,43.01644840980488],[-78.80989413417385,43.01644840980488],[-78.80989413417385,43.01011206249506],[-78.81748488329409,43.01011206249506]]]},"properties":{"feature_id":"usace-density-063","layer_type":"2005_report_symbol_density","density_class":"higher","symbol_pixels":1684,"permit_color_pixels":1198,"inquiry_color_pixels":486,"report_totals":"501 repair permits (1987-2004); 594 inquiries (2000-March 2005)","source_id":"usace-2005-figure-23","confidence":"agency_map_approximation","privacy_treatment":"Household points replaced with coarse relative-density cells","boundary_note":"Approximate affine alignment from the published report figure","causal_claim":"none","last_reviewed":"2026-08-03"}},{"type":"Feature","geometry":{"type":"Polygon","coordinates":[[[-78.80989413417385,43.01011206249506],[-78.80989413417385,43.01644840980488],[-78.8024720683674,43.01644840980488],[-78.8024720683674,43.01011206249506],[-78.80989413417385,43.01011206249506]]]},"properties":{"feature_id":"usace-density-064","layer_type":"2005_report_symbol_density","density_class":"moderate","symbol_pixels":419,"permit_color_pixels":91,"inquiry_color_pixels":328,"report_totals":"501 repair permits (1987-2004); 594 inquiries (2000-March 2005)","source_id":"usace-2005-figure-23","confidence":"agency_map_approximation","privacy_treatment":"Household points replaced with coarse relative-density cells","boundary_note":"Approximate affine alignment from the published report figure","causal_claim":"none","last_reviewed":"2026-08-03"}},{"type":"Feature","geometry":{"type":"Polygon","coordinates":[[[-78.77986850432045,43.01011206249506],[-78.77986850432045,43.01644840980488],[-78.77227775520021,43.01644840980488],[-78.77227775520021,43.01011206249506],[-78.77986850432045,43.01011206249506]]]},"properties":{"feature_id":"usace-density-066","layer_type":"2005_report_symbol_density","density_class":"higher","symbol_pixels":520,"permit_color_pixels":195,"inquiry_color_pixels":325,"report_totals":"501 repair permits (1987-2004); 594 inquiries (2000-March 2005)","source_id":"usace-2005-figure-23","confidence":"agency_map_approximation","privacy_treatment":"Household points replaced with coarse relative-density cells","boundary_note":"Approximate affine alignment from the published report figure","causal_claim":"none","last_reviewed":"2026-08-03"}},{"type":"Feature","geometry":{"type":"Polygon","coordinates":[[[-78.7572649402735,43.01011206249506],[-78.7572649402735,43.01644840980488],[-78.74967419115326,43.01644840980488],[-78.74967419115326,43.01011206249506],[-78.7572649402735,43.01011206249506]]]},"properties":{"feature_id":"usace-density-069","layer_type":"2005_report_symbol_density","density_class":"moderate","symbol_pixels":431,"permit_color_pixels":41,"inquiry_color_pixels":390,"report_totals":"501 repair permits (1987-2004); 594 inquiries (2000-March 2005)","source_id":"usace-2005-figure-23","confidence":"agency_map_approximation","privacy_treatment":"Household points replaced with coarse relative-density cells","boundary_note":"Approximate affine alignment from the published report figure","causal_claim":"none","last_reviewed":"2026-08-03"}},{"type":"Feature","geometry":{"type":"Polygon","coordinates":[[[-78.74967419115326,43.01011206249506],[-78.74967419115326,43.01644840980488],[-78.74208344203302,43.01644840980488],[-78.74208344203302,43.01011206249506],[-78.74967419115326,43.01011206249506]]]},"properties":{"feature_id":"usace-density-070","layer_type":"2005_report_symbol_density","density_class":"higher","symbol_pixels":457,"permit_color_pixels":0,"inquiry_color_pixels":457,"report_totals":"501 repair permits (1987-2004); 594 inquiries (2000-March 2005)","source_id":"usace-2005-figure-23","confidence":"agency_map_approximation","privacy_treatment":"Household points replaced with coarse relative-density cells","boundary_note":"Approximate affine alignment from the published report figure","causal_claim":"none","last_reviewed":"2026-08-03"}},{"type":"Feature","geometry":{"type":"Polygon","coordinates":[[[-78.72707062710631,43.01011206249506],[-78.72707062710631,43.01644840980488],[-78.71947987798607,43.01644840980488],[-78.71947987798607,43.01011206249506],[-78.72707062710631,43.01011206249506]]]},"properties":{"feature_id":"usace-density-073","layer_type":"2005_report_symbol_density","density_class":"higher","symbol_pixels":737,"permit_color_pixels":588,"inquiry_color_pixels":149,"report_totals":"501 repair permits (1987-2004); 594 inquiries (2000-March 2005)","source_id":"usace-2005-figure-23","confidence":"agency_map_approximation","privacy_treatment":"Household points replaced with coarse relative-density cells","boundary_note":"Approximate affine alignment from the published report figure","causal_claim":"none","last_reviewed":"2026-08-03"}},{"type":"Feature","geometry":{"type":"Polygon","coordinates":[[[-78.71947987798607,43.01011206249506],[-78.71947987798607,43.01644840980488],[-78.71205781217961,43.01644840980488],[-78.71205781217961,43.01011206249506],[-78.71947987798607,43.01011206249506]]]},"properties":{"feature_id":"usace-density-074","layer_type":"2005_report_symbol_density","density_class":"higher","symbol_pixels":1049,"permit_color_pixels":845,"inquiry_color_pixels":204,"report_totals":"501 repair permits (1987-2004); 594 inquiries (2000-March 2005)","source_id":"usace-2005-figure-23","confidence":"agency_map_approximation","privacy_treatment":"Household points replaced with coarse relative-density cells","boundary_note":"Approximate affine alignment from the published report figure","causal_claim":"none","last_reviewed":"2026-08-03"}},{"type":"Feature","geometry":{"type":"Polygon","coordinates":[[[-78.81748488329409,43.00364640197484],[-78.81748488329409,43.01011206249506],[-78.80989413417385,43.01011206249506],[-78.80989413417385,43.00364640197484],[-78.81748488329409,43.00364640197484]]]},"properties":{"feature_id":"usace-density-076","layer_type":"2005_report_symbol_density","density_class":"higher","symbol_pixels":655,"permit_color_pixels":219,"inquiry_color_pixels":436,"report_totals":"501 repair permits (1987-2004); 594 inquiries (2000-March 2005)","source_id":"usace-2005-figure-23","confidence":"agency_map_approximation","privacy_treatment":"Household points replaced with coarse relative-density cells","boundary_note":"Approximate affine alignment from the published report figure","causal_claim":"none","last_reviewed":"2026-08-03"}},{"type":"Feature","geometry":{"type":"Polygon","coordinates":[[[-78.80989413417385,43.00364640197484],[-78.80989413417385,43.01011206249506],[-78.8024720683674,43.01011206249506],[-78.8024720683674,43.00364640197484],[-78.80989413417385,43.00364640197484]]]},"properties":{"feature_id":"usace-density-077","layer_type":"2005_report_symbol_density","density_class":"higher","symbol_pixels":472,"permit_color_pixels":189,"inquiry_color_pixels":283,"report_totals":"501 repair permits (1987-2004); 594 inquiries (2000-March 2005)","source_id":"usace-2005-figure-23","confidence":"agency_map_approximation","privacy_treatment":"Household points replaced with coarse relative-density cells","boundary_note":"Approximate affine alignment from the published report figure","causal_claim":"none","last_reviewed":"2026-08-03"}},{"type":"Feature","geometry":{"type":"Polygon","coordinates":[[[-78.77227775520021,43.00364640197484],[-78.77227775520021,43.01011206249506],[-78.76468700607995,43.01011206249506],[-78.76468700607995,43.00364640197484],[-78.77227775520021,43.00364640197484]]]},"properties":{"feature_id":"usace-density-079","layer_type":"2005_report_symbol_density","density_class":"moderate","symbol_pixels":352,"permit_color_pixels":211,"inquiry_color_pixels":141,"report_totals":"501 repair permits (1987-2004); 594 inquiries (2000-March 2005)","source_id":"usace-2005-figure-23","confidence":"agency_map_approximation","privacy_treatment":"Household points replaced with coarse relative-density cells","boundary_note":"Approximate affine alignment from the published report figure","causal_claim":"none","last_reviewed":"2026-08-03"}},{"type":"Feature","geometry":{"type":"Polygon","coordinates":[[[-78.76468700607995,43.00364640197484],[-78.76468700607995,43.01011206249506],[-78.7572649402735,43.01011206249506],[-78.7572649402735,43.00364640197484],[-78.76468700607995,43.00364640197484]]]},"properties":{"feature_id":"usace-density-080","layer_type":"2005_report_symbol_density","density_class":"moderate","symbol_pixels":281,"permit_color_pixels":205,"inquiry_color_pixels":76,"report_totals":"501 repair permits (1987-2004); 594 inquiries (2000-March 2005)","source_id":"usace-2005-figure-23","confidence":"agency_map_approximation","privacy_treatment":"Household points replaced with coarse relative-density cells","boundary_note":"Approximate affine alignment from the published report figure","causal_claim":"none","last_reviewed":"2026-08-03"}},{"type":"Feature","geometry":{"type":"Polygon","coordinates":[[[-78.7572649402735,43.00364640197484],[-78.7572649402735,43.01011206249506],[-78.74967419115326,43.01011206249506],[-78.74967419115326,43.00364640197484],[-78.7572649402735,43.00364640197484]]]},"properties":{"feature_id":"usace-density-081","layer_type":"2005_report_symbol_density","density_class":"higher","symbol_pixels":619,"permit_color_pixels":167,"inquiry_color_pixels":452,"report_totals":"501 repair permits (1987-2004); 594 inquiries (2000-March 2005)","source_id":"usace-2005-figure-23","confidence":"agency_map_approximation","privacy_treatment":"Household points replaced with coarse relative-density cells","boundary_note":"Approximate affine alignment from the published report figure","causal_claim":"none","last_reviewed":"2026-08-03"}},{"type":"Feature","geometry":{"type":"Polygon","coordinates":[[[-78.74967419115326,43.00364640197484],[-78.74967419115326,43.01011206249506],[-78.74208344203302,43.01011206249506],[-78.74208344203302,43.00364640197484],[-78.74967419115326,43.00364640197484]]]},"properties":{"feature_id":"usace-density-082","layer_type":"2005_report_symbol_density","density_class":"moderate","symbol_pixels":253,"permit_color_pixels":81,"inquiry_color_pixels":172,"report_totals":"501 repair permits (1987-2004); 594 inquiries (2000-March 2005)","source_id":"usace-2005-figure-23","confidence":"agency_map_approximation","privacy_treatment":"Household points replaced with coarse relative-density cells","boundary_note":"Approximate affine alignment from the published report figure","causal_claim":"none","last_reviewed":"2026-08-03"}},{"type":"Feature","geometry":{"type":"Polygon","coordinates":[[[-78.72707062710631,43.00364640197484],[-78.72707062710631,43.01011206249506],[-78.71947987798607,43.01011206249506],[-78.71947987798607,43.00364640197484],[-78.72707062710631,43.00364640197484]]]},"properties":{"feature_id":"usace-density-085","layer_type":"2005_report_symbol_density","density_class":"higher","symbol_pixels":494,"permit_color_pixels":399,"inquiry_color_pixels":95,"report_totals":"501 repair permits (1987-2004); 594 inquiries (2000-March 2005)","source_id":"usace-2005-figure-23","confidence":"agency_map_approximation","privacy_treatment":"Household points replaced with coarse relative-density cells","boundary_note":"Approximate affine alignment from the published report figure","causal_claim":"none","last_reviewed":"2026-08-03"}},{"type":"Feature","geometry":{"type":"Polygon","coordinates":[[[-78.71947987798607,43.00364640197484],[-78.71947987798607,43.01011206249506],[-78.71205781217961,43.01011206249506],[-78.71205781217961,43.00364640197484],[-78.71947987798607,43.00364640197484]]]},"properties":{"feature_id":"usace-density-086","layer_type":"2005_report_symbol_density","density_class":"moderate","symbol_pixels":377,"permit_color_pixels":18,"inquiry_color_pixels":359,"report_totals":"501 repair permits (1987-2004); 594 inquiries (2000-March 2005)","source_id":"usace-2005-figure-23","confidence":"agency_map_approximation","privacy_treatment":"Household points replaced with coarse relative-density cells","boundary_note":"Approximate affine alignment from the published report figure","causal_claim":"none","last_reviewed":"2026-08-03"}},{"type":"Feature","geometry":{"type":"Polygon","coordinates":[[[-78.71205781217961,43.00364640197484],[-78.71205781217961,43.01011206249506],[-78.70446706305937,43.01011206249506],[-78.70446706305937,43.00364640197484],[-78.71205781217961,43.00364640197484]]]},"properties":{"feature_id":"usace-density-087","layer_type":"2005_report_symbol_density","density_class":"higher","symbol_pixels":554,"permit_color_pixels":289,"inquiry_color_pixels":265,"report_totals":"501 repair permits (1987-2004); 594 inquiries (2000-March 2005)","source_id":"usace-2005-figure-23","confidence":"agency_map_approximation","privacy_treatment":"Household points replaced with coarse relative-density cells","boundary_note":"Approximate affine alignment from the published report figure","causal_claim":"none","last_reviewed":"2026-08-03"}},{"type":"Feature","geometry":{"type":"Polygon","coordinates":[[[-78.70446706305937,43.00364640197484],[-78.70446706305937,43.01011206249506],[-78.6969465115356,43.01011206249506],[-78.69694553002128,43.009720743282934],[-78.69694368175611,43.00898164062139],[-78.696940816636,43.0079341876031],[-78.69693852175705,43.007196100369356],[-78.69693417237858,43.00585025720843],[-78.69693508163968,43.00532925822045],[-78.69693736750189,43.00364640197484],[-78.70446706305937,43.00364640197484]]]},"properties":{"feature_id":"usace-density-088","layer_type":"2005_report_symbol_density","density_class":"moderate","symbol_pixels":227,"permit_color_pixels":15,"inquiry_color_pixels":212,"report_totals":"501 repair permits (1987-2004); 594 inquiries (2000-March 2005)","source_id":"usace-2005-figure-23","confidence":"agency_map_approximation","privacy_treatment":"Household points replaced with coarse relative-density cells","boundary_note":"Approximate affine alignment from the published report figure","causal_claim":"none","last_reviewed":"2026-08-03"}},{"type":"Feature","geometry":{"type":"Polygon","coordinates":[[[-78.80989413417385,42.99731005466502],[-78.80989413417385,43.00364640197484],[-78.8024720683674,43.00364640197484],[-78.8024720683674,42.99731005466502],[-78.80989413417385,42.99731005466502]]]},"properties":{"feature_id":"usace-density-090","layer_type":"2005_report_symbol_density","density_class":"moderate","symbol_pixels":174,"permit_color_pixels":4,"inquiry_color_pixels":170,"report_totals":"501 repair permits (1987-2004); 594 inquiries (2000-March 2005)","source_id":"usace-2005-figure-23","confidence":"agency_map_approximation","privacy_treatment":"Household points replaced with coarse relative-density cells","boundary_note":"Approximate affine alignment from the published report figure","causal_claim":"none","last_reviewed":"2026-08-03"}},{"type":"Feature","geometry":{"type":"Polygon","coordinates":[[[-78.76468700607995,42.99731005466502],[-78.76468700607995,43.00364640197484],[-78.7572649402735,43.00364640197484],[-78.7572649402735,42.99731005466502],[-78.76468700607995,42.99731005466502]]]},"properties":{"feature_id":"usace-density-092","layer_type":"2005_report_symbol_density","density_class":"higher","symbol_pixels":475,"permit_color_pixels":385,"inquiry_color_pixels":90,"report_totals":"501 repair permits (1987-2004); 594 inquiries (2000-March 2005)","source_id":"usace-2005-figure-23","confidence":"agency_map_approximation","privacy_treatment":"Household points replaced with coarse relative-density cells","boundary_note":"Approximate affine alignment from the published report figure","causal_claim":"none","last_reviewed":"2026-08-03"}},{"type":"Feature","geometry":{"type":"Polygon","coordinates":[[[-78.7572649402735,42.99731005466502],[-78.7572649402735,43.00364640197484],[-78.74967419115326,43.00364640197484],[-78.74967419115326,42.99731005466502],[-78.7572649402735,42.99731005466502]]]},"properties":{"feature_id":"usace-density-093","layer_type":"2005_report_symbol_density","density_class":"higher","symbol_pixels":927,"permit_color_pixels":408,"inquiry_color_pixels":519,"report_totals":"501 repair permits (1987-2004); 594 inquiries (2000-March 2005)","source_id":"usace-2005-figure-23","confidence":"agency_map_approximation","privacy_treatment":"Household points replaced with coarse relative-density cells","boundary_note":"Approximate affine alignment from the published report figure","causal_claim":"none","last_reviewed":"2026-08-03"}},{"type":"Feature","geometry":{"type":"Polygon","coordinates":[[[-78.74967419115326,42.99731005466502],[-78.74967419115326,43.00364640197484],[-78.74208344203302,43.00364640197484],[-78.74208344203302,42.99731005466502],[-78.74967419115326,42.99731005466502]]]},"properties":{"feature_id":"usace-density-094","layer_type":"2005_report_symbol_density","density_class":"higher","symbol_pixels":877,"permit_color_pixels":361,"inquiry_color_pixels":516,"report_totals":"501 repair permits (1987-2004); 594 inquiries (2000-March 2005)","source_id":"usace-2005-figure-23","confidence":"agency_map_approximation","privacy_treatment":"Household points replaced with coarse relative-density cells","boundary_note":"Approximate affine alignment from the published report figure","causal_claim":"none","last_reviewed":"2026-08-03"}},{"type":"Feature","geometry":{"type":"Polygon","coordinates":[[[-78.74208344203302,42.99731005466502],[-78.74208344203302,43.00364640197484],[-78.73466137622655,43.00364640197484],[-78.73466137622655,42.99731005466502],[-78.74208344203302,42.99731005466502]]]},"properties":{"feature_id":"usace-density-095","layer_type":"2005_report_symbol_density","density_class":"moderate","symbol_pixels":443,"permit_color_pixels":83,"inquiry_color_pixels":360,"report_totals":"501 repair permits (1987-2004); 594 inquiries (2000-March 2005)","source_id":"usace-2005-figure-23","confidence":"agency_map_approximation","privacy_treatment":"Household points replaced with coarse relative-density cells","boundary_note":"Approximate affine alignment from the published report figure","causal_claim":"none","last_reviewed":"2026-08-03"}},{"type":"Feature","geometry":{"type":"Polygon","coordinates":[[[-78.72707062710631,42.99731005466502],[-78.72707062710631,43.00364640197484],[-78.71947987798607,43.00364640197484],[-78.71947987798607,42.99731005466502],[-78.72707062710631,42.99731005466502]]]},"properties":{"feature_id":"usace-density-097","layer_type":"2005_report_symbol_density","density_class":"moderate","symbol_pixels":195,"permit_color_pixels":166,"inquiry_color_pixels":29,"report_totals":"501 repair permits (1987-2004); 594 inquiries (2000-March 2005)","source_id":"usace-2005-figure-23","confidence":"agency_map_approximation","privacy_treatment":"Household points replaced with coarse relative-density cells","boundary_note":"Approximate affine alignment from the published report figure","causal_claim":"none","last_reviewed":"2026-08-03"}},{"type":"Feature","geometry":{"type":"Polygon","coordinates":[[[-78.71947987798607,42.99731005466502],[-78.71947987798607,43.00364640197484],[-78.71205781217961,43.00364640197484],[-78.71205781217961,42.99731005466502],[-78.71947987798607,42.99731005466502]]]},"properties":{"feature_id":"usace-density-098","layer_type":"2005_report_symbol_density","density_class":"moderate","symbol_pixels":365,"permit_color_pixels":129,"inquiry_color_pixels":236,"report_totals":"501 repair permits (1987-2004); 594 inquiries (2000-March 2005)","source_id":"usace-2005-figure-23","confidence":"agency_map_approximation","privacy_treatment":"Household points replaced with coarse relative-density cells","boundary_note":"Approximate affine alignment from the published report figure","causal_claim":"none","last_reviewed":"2026-08-03"}},{"type":"Feature","geometry":{"type":"Polygon","coordinates":[[[-78.71205781217961,42.99731005466502],[-78.71205781217961,43.00364640197484],[-78.70446706305937,43.00364640197484],[-78.70446706305937,42.99731005466502],[-78.71205781217961,42.99731005466502]]]},"properties":{"feature_id":"usace-density-099","layer_type":"2005_report_symbol_density","density_class":"moderate","symbol_pixels":325,"permit_color_pixels":101,"inquiry_color_pixels":224,"report_totals":"501 repair permits (1987-2004); 594 inquiries (2000-March 2005)","source_id":"usace-2005-figure-23","confidence":"agency_map_approximation","privacy_treatment":"Household points replaced with coarse relative-density cells","boundary_note":"Approximate affine alignment from the published report figure","causal_claim":"none","last_reviewed":"2026-08-03"}},{"type":"Feature","geometry":{"type":"Polygon","coordinates":[[[-78.76468700607995,42.9908443941448],[-78.76468700607995,42.99731005466502],[-78.7572649402735,42.99731005466502],[-78.7572649402735,42.9908443941448],[-78.76468700607995,42.9908443941448]]]},"properties":{"feature_id":"usace-density-100","layer_type":"2005_report_symbol_density","density_class":"higher","symbol_pixels":643,"permit_color_pixels":445,"inquiry_color_pixels":198,"report_totals":"501 repair permits (1987-2004); 594 inquiries (2000-March 2005)","source_id":"usace-2005-figure-23","confidence":"agency_map_approximation","privacy_treatment":"Household points replaced with coarse relative-density cells","boundary_note":"Approximate affine alignment from the published report figure","causal_claim":"none","last_reviewed":"2026-08-03"}},{"type":"Feature","geometry":{"type":"Polygon","coordinates":[[[-78.7572649402735,42.9908443941448],[-78.7572649402735,42.99731005466502],[-78.74967419115326,42.99731005466502],[-78.74967419115326,42.9908443941448],[-78.7572649402735,42.9908443941448]]]},"properties":{"feature_id":"usace-density-101","layer_type":"2005_report_symbol_density","density_class":"higher","symbol_pixels":1281,"permit_color_pixels":640,"inquiry_color_pixels":641,"report_totals":"501 repair permits (1987-2004); 594 inquiries (2000-March 2005)","source_id":"usace-2005-figure-23","confidence":"agency_map_approximation","privacy_treatment":"Household points replaced with coarse relative-density cells","boundary_note":"Approximate affine alignment from the published report figure","causal_claim":"none","last_reviewed":"2026-08-03"}},{"type":"Feature","geometry":{"type":"Polygon","coordinates":[[[-78.74967419115326,42.9908443941448],[-78.74967419115326,42.99731005466502],[-78.74208344203302,42.99731005466502],[-78.74208344203302,42.9908443941448],[-78.74967419115326,42.9908443941448]]]},"properties":{"feature_id":"usace-density-102","layer_type":"2005_report_symbol_density","density_class":"higher","symbol_pixels":767,"permit_color_pixels":354,"inquiry_color_pixels":413,"report_totals":"501 repair permits (1987-2004); 594 inquiries (2000-March 2005)","source_id":"usace-2005-figure-23","confidence":"agency_map_approximation","privacy_treatment":"Household points replaced with coarse relative-density cells","boundary_note":"Approximate affine alignment from the published report figure","causal_claim":"none","last_reviewed":"2026-08-03"}},{"type":"Feature","geometry":{"type":"Polygon","coordinates":[[[-78.74208344203302,42.9908443941448],[-78.74208344203302,42.99731005466502],[-78.73466137622655,42.99731005466502],[-78.73466137622655,42.9908443941448],[-78.74208344203302,42.9908443941448]]]},"properties":{"feature_id":"usace-density-103","layer_type":"2005_report_symbol_density","density_class":"higher","symbol_pixels":451,"permit_color_pixels":186,"inquiry_color_pixels":265,"report_totals":"501 repair permits (1987-2004); 594 inquiries (2000-March 2005)","source_id":"usace-2005-figure-23","confidence":"agency_map_approximation","privacy_treatment":"Household points replaced with coarse relative-density cells","boundary_note":"Approximate affine alignment from the published report figure","causal_claim":"none","last_reviewed":"2026-08-03"}},{"type":"Feature","geometry":{"type":"Polygon","coordinates":[[[-78.72707062710631,42.9908443941448],[-78.72707062710631,42.99731005466502],[-78.71947987798607,42.99731005466502],[-78.71947987798607,42.9908443941448],[-78.72707062710631,42.9908443941448]]]},"properties":{"feature_id":"usace-density-105","layer_type":"2005_report_symbol_density","density_class":"moderate","symbol_pixels":313,"permit_color_pixels":195,"inquiry_color_pixels":118,"report_totals":"501 repair permits (1987-2004); 594 inquiries (2000-March 2005)","source_id":"usace-2005-figure-23","confidence":"agency_map_approximation","privacy_treatment":"Household points replaced with coarse relative-density cells","boundary_note":"Approximate affine alignment from the published report figure","causal_claim":"none","last_reviewed":"2026-08-03"}},{"type":"Feature","geometry":{"type":"Polygon","coordinates":[[[-78.71205781217961,42.9908443941448],[-78.71205781217961,42.99731005466502],[-78.70446706305937,42.99731005466502],[-78.70446706305937,42.9908443941448],[-78.71205781217961,42.9908443941448]]]},"properties":{"feature_id":"usace-density-107","layer_type":"2005_report_symbol_density","density_class":"moderate","symbol_pixels":171,"permit_color_pixels":41,"inquiry_color_pixels":130,"report_totals":"501 repair permits (1987-2004); 594 inquiries (2000-March 2005)","source_id":"usace-2005-figure-23","confidence":"agency_map_approximation","privacy_treatment":"Household points replaced with coarse relative-density cells","boundary_note":"Approximate affine alignment from the published report figure","causal_claim":"none","last_reviewed":"2026-08-03"}},{"type":"Feature","geometry":{"type":"Polygon","coordinates":[[[-78.81748488329409,42.98437873362458],[-78.81748488329409,42.9908443941448],[-78.80989413417385,42.9908443941448],[-78.80989413417385,42.98437873362458],[-78.81748488329409,42.98437873362458]]]},"properties":{"feature_id":"usace-density-108","layer_type":"2005_report_symbol_density","density_class":"moderate","symbol_pixels":284,"permit_color_pixels":263,"inquiry_color_pixels":21,"report_totals":"501 repair permits (1987-2004); 594 inquiries (2000-March 2005)","source_id":"usace-2005-figure-23","confidence":"agency_map_approximation","privacy_treatment":"Household points replaced with coarse relative-density cells","boundary_note":"Approximate affine alignment from the published report figure","causal_claim":"none","last_reviewed":"2026-08-03"}},{"type":"Feature","geometry":{"type":"Polygon","coordinates":[[[-78.80989413417385,42.98437873362458],[-78.80989413417385,42.9908443941448],[-78.8024720683674,42.9908443941448],[-78.8024720683674,42.98437873362458],[-78.80989413417385,42.98437873362458]]]},"properties":{"feature_id":"usace-density-109","layer_type":"2005_report_symbol_density","density_class":"moderate","symbol_pixels":441,"permit_color_pixels":234,"inquiry_color_pixels":207,"report_totals":"501 repair permits (1987-2004); 594 inquiries (2000-March 2005)","source_id":"usace-2005-figure-23","confidence":"agency_map_approximation","privacy_treatment":"Household points replaced with coarse relative-density cells","boundary_note":"Approximate affine alignment from the published report figure","causal_claim":"none","last_reviewed":"2026-08-03"}},{"type":"Feature","geometry":{"type":"Polygon","coordinates":[[[-78.7872905701269,42.98437873362458],[-78.7872905701269,42.9908443941448],[-78.77986850432045,42.9908443941448],[-78.77986850432045,42.98437873362458],[-78.7872905701269,42.98437873362458]]]},"properties":{"feature_id":"usace-density-112","layer_type":"2005_report_symbol_density","density_class":"higher","symbol_pixels":489,"permit_color_pixels":276,"inquiry_color_pixels":213,"report_totals":"501 repair permits (1987-2004); 594 inquiries (2000-March 2005)","source_id":"usace-2005-figure-23","confidence":"agency_map_approximation","privacy_treatment":"Household points replaced with coarse relative-density cells","boundary_note":"Approximate affine alignment from the published report figure","causal_claim":"none","last_reviewed":"2026-08-03"}},{"type":"Feature","geometry":{"type":"Polygon","coordinates":[[[-78.77986850432045,42.98437873362458],[-78.77986850432045,42.9908443941448],[-78.77227775520021,42.9908443941448],[-78.77227775520021,42.98437873362458],[-78.77986850432045,42.98437873362458]]]},"properties":{"feature_id":"usace-density-113","layer_type":"2005_report_symbol_density","density_class":"moderate","symbol_pixels":373,"permit_color_pixels":244,"inquiry_color_pixels":129,"report_totals":"501 repair permits (1987-2004); 594 inquiries (2000-March 2005)","source_id":"usace-2005-figure-23","confidence":"agency_map_approximation","privacy_treatment":"Household points replaced with coarse relative-density cells","boundary_note":"Approximate affine alignment from the published report figure","causal_claim":"none","last_reviewed":"2026-08-03"}},{"type":"Feature","geometry":{"type":"Polygon","coordinates":[[[-78.77227775520021,42.98437873362458],[-78.77227775520021,42.9908443941448],[-78.76468700607995,42.9908443941448],[-78.76468700607995,42.98437873362458],[-78.77227775520021,42.98437873362458]]]},"properties":{"feature_id":"usace-density-114","layer_type":"2005_report_symbol_density","density_class":"moderate","symbol_pixels":195,"permit_color_pixels":106,"inquiry_color_pixels":89,"report_totals":"501 repair permits (1987-2004); 594 inquiries (2000-March 2005)","source_id":"usace-2005-figure-23","confidence":"agency_map_approximation","privacy_treatment":"Household points replaced with coarse relative-density cells","boundary_note":"Approximate affine alignment from the published report figure","causal_claim":"none","last_reviewed":"2026-08-03"}},{"type":"Feature","geometry":{"type":"Polygon","coordinates":[[[-78.7572649402735,42.98437873362458],[-78.7572649402735,42.9908443941448],[-78.74967419115326,42.9908443941448],[-78.74967419115326,42.98437873362458],[-78.7572649402735,42.98437873362458]]]},"properties":{"feature_id":"usace-density-116","layer_type":"2005_report_symbol_density","density_class":"higher","symbol_pixels":652,"permit_color_pixels":517,"inquiry_color_pixels":135,"report_totals":"501 repair permits (1987-2004); 594 inquiries (2000-March 2005)","source_id":"usace-2005-figure-23","confidence":"agency_map_approximation","privacy_treatment":"Household points replaced with coarse relative-density cells","boundary_note":"Approximate affine alignment from the published report figure","causal_claim":"none","last_reviewed":"2026-08-03"}},{"type":"Feature","geometry":{"type":"Polygon","coordinates":[[[-78.74967419115326,42.98437873362458],[-78.74967419115326,42.9908443941448],[-78.74208344203302,42.9908443941448],[-78.74208344203302,42.98437873362458],[-78.74967419115326,42.98437873362458]]]},"properties":{"feature_id":"usace-density-117","layer_type":"2005_report_symbol_density","density_class":"higher","symbol_pixels":511,"permit_color_pixels":226,"inquiry_color_pixels":285,"report_totals":"501 repair permits (1987-2004); 594 inquiries (2000-March 2005)","source_id":"usace-2005-figure-23","confidence":"agency_map_approximation","privacy_treatment":"Household points replaced with coarse relative-density cells","boundary_note":"Approximate affine alignment from the published report figure","causal_claim":"none","last_reviewed":"2026-08-03"}},{"type":"Feature","geometry":{"type":"Polygon","coordinates":[[[-78.74208344203302,42.98437873362458],[-78.74208344203302,42.9908443941448],[-78.73466137622655,42.9908443941448],[-78.73466137622655,42.98437873362458],[-78.74208344203302,42.98437873362458]]]},"properties":{"feature_id":"usace-density-118","layer_type":"2005_report_symbol_density","density_class":"moderate","symbol_pixels":372,"permit_color_pixels":259,"inquiry_color_pixels":113,"report_totals":"501 repair permits (1987-2004); 594 inquiries (2000-March 2005)","source_id":"usace-2005-figure-23","confidence":"agency_map_approximation","privacy_treatment":"Household points replaced with coarse relative-density cells","boundary_note":"Approximate affine alignment from the published report figure","causal_claim":"none","last_reviewed":"2026-08-03"}},{"type":"Feature","geometry":{"type":"Polygon","coordinates":[[[-78.73466137622655,42.98437873362458],[-78.73466137622655,42.9908443941448],[-78.72707062710631,42.9908443941448],[-78.72707062710631,42.98437873362458],[-78.73466137622655,42.98437873362458]]]},"properties":{"feature_id":"usace-density-119","layer_type":"2005_report_symbol_density","density_class":"moderate","symbol_pixels":397,"permit_color_pixels":267,"inquiry_color_pixels":130,"report_totals":"501 repair permits (1987-2004); 594 inquiries (2000-March 2005)","source_id":"usace-2005-figure-23","confidence":"agency_map_approximation","privacy_treatment":"Household points replaced with coarse relative-density cells","boundary_note":"Approximate affine alignment from the published report figure","causal_claim":"none","last_reviewed":"2026-08-03"}},{"type":"Feature","geometry":{"type":"Polygon","coordinates":[[[-78.72707062710631,42.98437873362458],[-78.72707062710631,42.9908443941448],[-78.71947987798607,42.9908443941448],[-78.71947987798607,42.98437873362458],[-78.72707062710631,42.98437873362458]]]},"properties":{"feature_id":"usace-density-120","layer_type":"2005_report_symbol_density","density_class":"moderate","symbol_pixels":276,"permit_color_pixels":200,"inquiry_color_pixels":76,"report_totals":"501 repair permits (1987-2004); 594 inquiries (2000-March 2005)","source_id":"usace-2005-figure-23","confidence":"agency_map_approximation","privacy_treatment":"Household points replaced with coarse relative-density cells","boundary_note":"Approximate affine alignment from the published report figure","causal_claim":"none","last_reviewed":"2026-08-03"}},{"type":"Feature","geometry":{"type":"Polygon","coordinates":[[[-78.71947987798607,42.98437873362458],[-78.71947987798607,42.9908443941448],[-78.71205781217961,42.9908443941448],[-78.71205781217961,42.98437873362458],[-78.71947987798607,42.98437873362458]]]},"properties":{"feature_id":"usace-density-121","layer_type":"2005_report_symbol_density","density_class":"higher","symbol_pixels":539,"permit_color_pixels":438,"inquiry_color_pixels":101,"report_totals":"501 repair permits (1987-2004); 594 inquiries (2000-March 2005)","source_id":"usace-2005-figure-23","confidence":"agency_map_approximation","privacy_treatment":"Household points replaced with coarse relative-density cells","boundary_note":"Approximate affine alignment from the published report figure","causal_claim":"none","last_reviewed":"2026-08-03"}},{"type":"Feature","geometry":{"type":"Polygon","coordinates":[[[-78.71205781217961,42.98437873362458],[-78.71205781217961,42.9908443941448],[-78.70446706305937,42.9908443941448],[-78.70446706305937,42.98437873362458],[-78.71205781217961,42.98437873362458]]]},"properties":{"feature_id":"usace-density-122","layer_type":"2005_report_symbol_density","density_class":"moderate","symbol_pixels":159,"permit_color_pixels":90,"inquiry_color_pixels":69,"report_totals":"501 repair permits (1987-2004); 594 inquiries (2000-March 2005)","source_id":"usace-2005-figure-23","confidence":"agency_map_approximation","privacy_treatment":"Household points replaced with coarse relative-density cells","boundary_note":"Approximate affine alignment from the published report figure","causal_claim":"none","last_reviewed":"2026-08-03"}},{"type":"Feature","geometry":{"type":"Polygon","coordinates":[[[-78.81748488329409,42.97804238631476],[-78.81748488329409,42.98437873362458],[-78.80989413417385,42.98437873362458],[-78.80989413417385,42.97804238631476],[-78.81748488329409,42.97804238631476]]]},"properties":{"feature_id":"usace-density-123","layer_type":"2005_report_symbol_density","density_class":"moderate","symbol_pixels":363,"permit_color_pixels":334,"inquiry_color_pixels":29,"report_totals":"501 repair permits (1987-2004); 594 inquiries (2000-March 2005)","source_id":"usace-2005-figure-23","confidence":"agency_map_approximation","privacy_treatment":"Household points replaced with coarse relative-density cells","boundary_note":"Approximate affine alignment from the published report figure","causal_claim":"none","last_reviewed":"2026-08-03"}},{"type":"Feature","geometry":{"type":"Polygon","coordinates":[[[-78.80989413417385,42.97804238631476],[-78.80989413417385,42.98437873362458],[-78.8024720683674,42.98437873362458],[-78.8024720683674,42.97804238631476],[-78.80989413417385,42.97804238631476]]]},"properties":{"feature_id":"usace-density-124","layer_type":"2005_report_symbol_density","density_class":"higher","symbol_pixels":961,"permit_color_pixels":764,"inquiry_color_pixels":197,"report_totals":"501 repair permits (1987-2004); 594 inquiries (2000-March 2005)","source_id":"usace-2005-figure-23","confidence":"agency_map_approximation","privacy_treatment":"Household points replaced with coarse relative-density cells","boundary_note":"Approximate affine alignment from the published report figure","causal_claim":"none","last_reviewed":"2026-08-03"}},{"type":"Feature","geometry":{"type":"Polygon","coordinates":[[[-78.8024720683674,42.97804238631476],[-78.8024720683674,42.98437873362458],[-78.79488131924714,42.98437873362458],[-78.79488131924714,42.97804238631476],[-78.8024720683674,42.97804238631476]]]},"properties":{"feature_id":"usace-density-125","layer_type":"2005_report_symbol_density","density_class":"higher","symbol_pixels":834,"permit_color_pixels":561,"inquiry_color_pixels":273,"report_totals":"501 repair permits (1987-2004); 594 inquiries (2000-March 2005)","source_id":"usace-2005-figure-23","confidence":"agency_map_approximation","privacy_treatment":"Household points replaced with coarse relative-density cells","boundary_note":"Approximate affine alignment from the published report figure","causal_claim":"none","last_reviewed":"2026-08-03"}},{"type":"Feature","geometry":{"type":"Polygon","coordinates":[[[-78.79488131924714,42.97804238631476],[-78.79488131924714,42.98437873362458],[-78.7872905701269,42.98437873362458],[-78.7872905701269,42.97804238631476],[-78.79488131924714,42.97804238631476]]]},"properties":{"feature_id":"usace-density-126","layer_type":"2005_report_symbol_density","density_class":"moderate","symbol_pixels":262,"permit_color_pixels":196,"inquiry_color_pixels":66,"report_totals":"501 repair permits (1987-2004); 594 inquiries (2000-March 2005)","source_id":"usace-2005-figure-23","confidence":"agency_map_approximation","privacy_treatment":"Household points replaced with coarse relative-density cells","boundary_note":"Approximate affine alignment from the published report figure","causal_claim":"none","last_reviewed":"2026-08-03"}},{"type":"Feature","geometry":{"type":"Polygon","coordinates":[[[-78.7872905701269,42.97804238631476],[-78.7872905701269,42.98437873362458],[-78.77986850432045,42.98437873362458],[-78.77986850432045,42.97804238631476],[-78.7872905701269,42.97804238631476]]]},"properties":{"feature_id":"usace-density-127","layer_type":"2005_report_symbol_density","density_class":"higher","symbol_pixels":742,"permit_color_pixels":612,"inquiry_color_pixels":130,"report_totals":"501 repair permits (1987-2004); 594 inquiries (2000-March 2005)","source_id":"usace-2005-figure-23","confidence":"agency_map_approximation","privacy_treatment":"Household points replaced with coarse relative-density cells","boundary_note":"Approximate affine alignment from the published report figure","causal_claim":"none","last_reviewed":"2026-08-03"}},{"type":"Feature","geometry":{"type":"Polygon","coordinates":[[[-78.77986850432045,42.97804238631476],[-78.77986850432045,42.98437873362458],[-78.77227775520021,42.98437873362458],[-78.77227775520021,42.97804238631476],[-78.77986850432045,42.97804238631476]]]},"properties":{"feature_id":"usace-density-128","layer_type":"2005_report_symbol_density","density_class":"moderate","symbol_pixels":378,"permit_color_pixels":302,"inquiry_color_pixels":76,"report_totals":"501 repair permits (1987-2004); 594 inquiries (2000-March 2005)","source_id":"usace-2005-figure-23","confidence":"agency_map_approximation","privacy_treatment":"Household points replaced with coarse relative-density cells","boundary_note":"Approximate affine alignment from the published report figure","causal_claim":"none","last_reviewed":"2026-08-03"}},{"type":"Feature","geometry":{"type":"Polygon","coordinates":[[[-78.76468700607995,42.97804238631476],[-78.76468700607995,42.98437873362458],[-78.7572649402735,42.98437873362458],[-78.7572649402735,42.97804238631476],[-78.76468700607995,42.97804238631476]]]},"properties":{"feature_id":"usace-density-129","layer_type":"2005_report_symbol_density","density_class":"moderate","symbol_pixels":253,"permit_color_pixels":168,"inquiry_color_pixels":85,"report_totals":"501 repair permits (1987-2004); 594 inquiries (2000-March 2005)","source_id":"usace-2005-figure-23","confidence":"agency_map_approximation","privacy_treatment":"Household points replaced with coarse relative-density cells","boundary_note":"Approximate affine alignment from the published report figure","causal_claim":"none","last_reviewed":"2026-08-03"}},{"type":"Feature","geometry":{"type":"Polygon","coordinates":[[[-78.7572649402735,42.97804238631476],[-78.7572649402735,42.98437873362458],[-78.74967419115326,42.98437873362458],[-78.74967419115326,42.97804238631476],[-78.7572649402735,42.97804238631476]]]},"properties":{"feature_id":"usace-density-130","layer_type":"2005_report_symbol_density","density_class":"moderate","symbol_pixels":294,"permit_color_pixels":222,"inquiry_color_pixels":72,"report_totals":"501 repair permits (1987-2004); 594 inquiries (2000-March 2005)","source_id":"usace-2005-figure-23","confidence":"agency_map_approximation","privacy_treatment":"Household points replaced with coarse relative-density cells","boundary_note":"Approximate affine alignment from the published report figure","causal_claim":"none","last_reviewed":"2026-08-03"}},{"type":"Feature","geometry":{"type":"Polygon","coordinates":[[[-78.74967419115326,42.97804238631476],[-78.74967419115326,42.98437873362458],[-78.74208344203302,42.98437873362458],[-78.74208344203302,42.97804238631476],[-78.74967419115326,42.97804238631476]]]},"properties":{"feature_id":"usace-density-131","layer_type":"2005_report_symbol_density","density_class":"higher","symbol_pixels":688,"permit_color_pixels":645,"inquiry_color_pixels":43,"report_totals":"501 repair permits (1987-2004); 594 inquiries (2000-March 2005)","source_id":"usace-2005-figure-23","confidence":"agency_map_approximation","privacy_treatment":"Household points replaced with coarse relative-density cells","boundary_note":"Approximate affine alignment from the published report figure","causal_claim":"none","last_reviewed":"2026-08-03"}},{"type":"Feature","geometry":{"type":"Polygon","coordinates":[[[-78.74208344203302,42.97804238631476],[-78.74208344203302,42.98437873362458],[-78.73466137622655,42.98437873362458],[-78.73466137622655,42.97804238631476],[-78.74208344203302,42.97804238631476]]]},"properties":{"feature_id":"usace-density-132","layer_type":"2005_report_symbol_density","density_class":"higher","symbol_pixels":668,"permit_color_pixels":491,"inquiry_color_pixels":177,"report_totals":"501 repair permits (1987-2004); 594 inquiries (2000-March 2005)","source_id":"usace-2005-figure-23","confidence":"agency_map_approximation","privacy_treatment":"Household points replaced with coarse relative-density cells","boundary_note":"Approximate affine alignment from the published report figure","causal_claim":"none","last_reviewed":"2026-08-03"}},{"type":"Feature","geometry":{"type":"Polygon","coordinates":[[[-78.73466137622655,42.97804238631476],[-78.73466137622655,42.98437873362458],[-78.72707062710631,42.98437873362458],[-78.72707062710631,42.97804238631476],[-78.73466137622655,42.97804238631476]]]},"properties":{"feature_id":"usace-density-133","layer_type":"2005_report_symbol_density","density_class":"higher","symbol_pixels":519,"permit_color_pixels":320,"inquiry_color_pixels":199,"report_totals":"501 repair permits (1987-2004); 594 inquiries (2000-March 2005)","source_id":"usace-2005-figure-23","confidence":"agency_map_approximation","privacy_treatment":"Household points replaced with coarse relative-density cells","boundary_note":"Approximate affine alignment from the published report figure","causal_claim":"none","last_reviewed":"2026-08-03"}},{"type":"Feature","geometry":{"type":"Polygon","coordinates":[[[-78.71205781217961,42.97804238631476],[-78.71205781217961,42.98437873362458],[-78.70446706305937,42.98437873362458],[-78.70446706305937,42.97804238631476],[-78.71205781217961,42.97804238631476]]]},"properties":{"feature_id":"usace-density-136","layer_type":"2005_report_symbol_density","density_class":"moderate","symbol_pixels":161,"permit_color_pixels":124,"inquiry_color_pixels":37,"report_totals":"501 repair permits (1987-2004); 594 inquiries (2000-March 2005)","source_id":"usace-2005-figure-23","confidence":"agency_map_approximation","privacy_treatment":"Household points replaced with coarse relative-density cells","boundary_note":"Approximate affine alignment from the published report figure","causal_claim":"none","last_reviewed":"2026-08-03"}},{"type":"Feature","geometry":{"type":"Polygon","coordinates":[[[-78.81748488329409,42.97804238631476],[-78.81748488329409,42.97157672579454],[-78.82331052644241,42.97157672579454],[-78.82330568754706,42.97170153507409],[-78.82330224045896,42.97177598276289],[-78.82329493243961,42.97193376905608],[-78.82327608065374,42.972255524153454],[-78.8232692701781,42.97242598594226],[-78.82326756990018,42.97246920502909],[-78.82326632475896,42.972504548333035],[-78.82324161973874,42.97311817818472],[-78.82319913463816,42.97432967351149],[-78.82319830178022,42.97435574175398],[-78.82317729817234,42.97483562880023],[-78.82316750009912,42.975083610287776],[-78.82316070781233,42.97525890110861],[-78.82315264346889,42.97546264822289],[-78.82313692567328,42.97587014156716],[-78.82313011051454,42.97603958802871],[-78.82312586867994,42.976150036514035],[-78.82312247168382,42.97623748984052],[-78.82311906007315,42.976321184134235],[-78.82311611163396,42.97639906051381],[-78.82309958572276,42.976839124867325],[-78.82308316901762,42.97729773731694],[-78.82308272448236,42.97730835691033],[-78.82306976587688,42.977695265533264],[-78.82306931600715,42.97770451321695],[-78.82305389573291,42.97804238631476],[-78.81748488329409,42.97804238631476]]]},"properties":{"feature_id":"usace-density-137","layer_type":"2005_report_symbol_density","density_class":"moderate","symbol_pixels":194,"permit_color_pixels":123,"inquiry_color_pixels":71,"report_totals":"501 repair permits (1987-2004); 594 inquiries (2000-March 2005)","source_id":"usace-2005-figure-23","confidence":"agency_map_approximation","privacy_treatment":"Household points replaced with coarse relative-density cells","boundary_note":"Approximate affine alignment from the published report figure","causal_claim":"none","last_reviewed":"2026-08-03"}},{"type":"Feature","geometry":{"type":"Polygon","coordinates":[[[-78.80989413417385,42.97157672579454],[-78.80989413417385,42.97804238631476],[-78.8024720683674,42.97804238631476],[-78.8024720683674,42.97157672579454],[-78.80989413417385,42.97157672579454]]]},"properties":{"feature_id":"usace-density-139","layer_type":"2005_report_symbol_density","density_class":"moderate","symbol_pixels":387,"permit_color_pixels":244,"inquiry_color_pixels":143,"report_totals":"501 repair permits (1987-2004); 594 inquiries (2000-March 2005)","source_id":"usace-2005-figure-23","confidence":"agency_map_approximation","privacy_treatment":"Household points replaced with coarse relative-density cells","boundary_note":"Approximate affine alignment from the published report figure","causal_claim":"none","last_reviewed":"2026-08-03"}},{"type":"Feature","geometry":{"type":"Polygon","coordinates":[[[-78.8024720683674,42.97157672579454],[-78.8024720683674,42.97804238631476],[-78.79488131924714,42.97804238631476],[-78.79488131924714,42.97157672579454],[-78.8024720683674,42.97157672579454]]]},"properties":{"feature_id":"usace-density-140","layer_type":"2005_report_symbol_density","density_class":"higher","symbol_pixels":490,"permit_color_pixels":416,"inquiry_color_pixels":74,"report_totals":"501 repair permits (1987-2004); 594 inquiries (2000-March 2005)","source_id":"usace-2005-figure-23","confidence":"agency_map_approximation","privacy_treatment":"Household points replaced with coarse relative-density cells","boundary_note":"Approximate affine alignment from the published report figure","causal_claim":"none","last_reviewed":"2026-08-03"}},{"type":"Feature","geometry":{"type":"Polygon","coordinates":[[[-78.74967419115326,42.97157672579454],[-78.74967419115326,42.97804238631476],[-78.74208344203302,42.97804238631476],[-78.74208344203302,42.97399514548929],[-78.74215634074224,42.973995442505306],[-78.74277614777446,42.9739980106262],[-78.74278038888292,42.97383167295658],[-78.74296864259283,42.973832096527445],[-78.74306766533478,42.97383264434507],[-78.74428440261153,42.973835741649914],[-78.74428335303683,42.97379148493782],[-78.74428065888793,42.97364675100428],[-78.74428013470336,42.973632017303885],[-78.74427583283988,42.97341525974289],[-78.7442753397285,42.973398111416124],[-78.74427052710165,42.97317175111255],[-78.74426892992561,42.97308943805768],[-78.74426729181104,42.97300575313747],[-78.74426462184933,42.972870265902124],[-78.74426338901837,42.97275571216916],[-78.74426258669564,42.97263429821968],[-78.74426181551841,42.97251049707986],[-78.7442611473397,42.97244053000581],[-78.74425974641073,42.97226149617234],[-78.74425817380221,42.97201661032171],[-78.74425604459408,42.971730210883166],[-78.74425533887721,42.97164583867096],[-78.74425479140392,42.97157672579454],[-78.74967419115326,42.97157672579454]]]},"properties":{"feature_id":"usace-density-147","layer_type":"2005_report_symbol_density","density_class":"moderate","symbol_pixels":212,"permit_color_pixels":212,"inquiry_color_pixels":0,"report_totals":"501 repair permits (1987-2004); 594 inquiries (2000-March 2005)","source_id":"usace-2005-figure-23","confidence":"agency_map_approximation","privacy_treatment":"Household points replaced with coarse relative-density cells","boundary_note":"Approximate affine alignment from the published report figure","causal_claim":"none","last_reviewed":"2026-08-03"}},{"type":"Feature","geometry":{"type":"Polygon","coordinates":[[[-78.73466137622655,42.97157672579454],[-78.73466137622655,42.97804238631476],[-78.72707062710631,42.97804238631476],[-78.72707062710631,42.97157672579454],[-78.72966566631223,42.97157672579454],[-78.7296658275407,42.97191305172877],[-78.72966274687595,42.97239460028134],[-78.73012936061849,42.9723909297138],[-78.73060470789613,42.97214817488942],[-78.73070453915598,42.97209728528847],[-78.73122888406716,42.97183009943081],[-78.73129326098353,42.971797446804075],[-78.73166645296799,42.97160558066805],[-78.73170865189104,42.97157672579454],[-78.73466137622655,42.97157672579454]]]},"properties":{"feature_id":"usace-density-149","layer_type":"2005_report_symbol_density","density_class":"moderate","symbol_pixels":167,"permit_color_pixels":96,"inquiry_color_pixels":71,"report_totals":"501 repair permits (1987-2004); 594 inquiries (2000-March 2005)","source_id":"usace-2005-figure-23","confidence":"agency_map_approximation","privacy_treatment":"Household points replaced with coarse relative-density cells","boundary_note":"Approximate affine alignment from the published report figure","causal_claim":"none","last_reviewed":"2026-08-03"}},{"type":"Feature","geometry":{"type":"Polygon","coordinates":[[[-78.71947987798607,42.97157672579454],[-78.71947987798607,42.97804238631476],[-78.71205781217961,42.97804238631476],[-78.71205781217961,42.97157672579454],[-78.71947987798607,42.97157672579454]]]},"properties":{"feature_id":"usace-density-150","layer_type":"2005_report_symbol_density","density_class":"moderate","symbol_pixels":160,"permit_color_pixels":155,"inquiry_color_pixels":5,"report_totals":"501 repair permits (1987-2004); 594 inquiries (2000-March 2005)","source_id":"usace-2005-figure-23","confidence":"agency_map_approximation","privacy_treatment":"Household points replaced with coarse relative-density cells","boundary_note":"Approximate affine alignment from the published report figure","causal_claim":"none","last_reviewed":"2026-08-03"}},{"type":"Feature","geometry":{"type":"Polygon","coordinates":[[[-78.81748488329409,42.97157672579454],[-78.81748488329409,42.965111065274314],[-78.82356673081959,42.965111065274314],[-78.82354251349784,42.96570164974199],[-78.82349772500223,42.96679859603718],[-78.82348284676176,42.96717110425724],[-78.8234091053797,42.96910531281624],[-78.82338562816538,42.96967849622702],[-78.82335917321467,42.97032198309674],[-78.82331052644241,42.97157672579454],[-78.81748488329409,42.97157672579454]]]},"properties":{"feature_id":"usace-density-152","layer_type":"2005_report_symbol_density","density_class":"moderate","symbol_pixels":288,"permit_color_pixels":216,"inquiry_color_pixels":72,"report_totals":"501 repair permits (1987-2004); 594 inquiries (2000-March 2005)","source_id":"usace-2005-figure-23","confidence":"agency_map_approximation","privacy_treatment":"Household points replaced with coarse relative-density cells","boundary_note":"Approximate affine alignment from the published report figure","causal_claim":"none","last_reviewed":"2026-08-03"}},{"type":"Feature","geometry":{"type":"Polygon","coordinates":[[[-78.81748488329409,42.965111065274314],[-78.81748488329409,42.97157672579454],[-78.80989413417385,42.97157672579454],[-78.80989413417385,42.965111065274314],[-78.81748488329409,42.965111065274314]]]},"properties":{"feature_id":"usace-density-153","layer_type":"2005_report_symbol_density","density_class":"higher","symbol_pixels":523,"permit_color_pixels":453,"inquiry_color_pixels":70,"report_totals":"501 repair permits (1987-2004); 594 inquiries (2000-March 2005)","source_id":"usace-2005-figure-23","confidence":"agency_map_approximation","privacy_treatment":"Household points replaced with coarse relative-density cells","boundary_note":"Approximate affine alignment from the published report figure","causal_claim":"none","last_reviewed":"2026-08-03"}},{"type":"Feature","geometry":{"type":"Polygon","coordinates":[[[-78.80989413417385,42.965111065274314],[-78.80989413417385,42.97157672579454],[-78.8024720683674,42.97157672579454],[-78.8024720683674,42.965111065274314],[-78.80989413417385,42.965111065274314]]]},"properties":{"feature_id":"usace-density-154","layer_type":"2005_report_symbol_density","density_class":"higher","symbol_pixels":511,"permit_color_pixels":495,"inquiry_color_pixels":16,"report_totals":"501 repair permits (1987-2004); 594 inquiries (2000-March 2005)","source_id":"usace-2005-figure-23","confidence":"agency_map_approximation","privacy_treatment":"Household points replaced with coarse relative-density cells","boundary_note":"Approximate affine alignment from the published report figure","causal_claim":"none","last_reviewed":"2026-08-03"}},{"type":"Feature","geometry":{"type":"Polygon","coordinates":[[[-78.8024720683674,42.965111065274314],[-78.8024720683674,42.97157672579454],[-78.79488131924714,42.97157672579454],[-78.79488131924714,42.965111065274314],[-78.8024720683674,42.965111065274314]]]},"properties":{"feature_id":"usace-density-155","layer_type":"2005_report_symbol_density","density_class":"moderate","symbol_pixels":348,"permit_color_pixels":281,"inquiry_color_pixels":67,"report_totals":"501 repair permits (1987-2004); 594 inquiries (2000-March 2005)","source_id":"usace-2005-figure-23","confidence":"agency_map_approximation","privacy_treatment":"Household points replaced with coarse relative-density cells","boundary_note":"Approximate affine alignment from the published report figure","causal_claim":"none","last_reviewed":"2026-08-03"}},{"type":"Feature","geometry":{"type":"Polygon","coordinates":[[[-78.79488131924714,42.965111065274314],[-78.79488131924714,42.97157672579454],[-78.7872905701269,42.97157672579454],[-78.7872905701269,42.965111065274314],[-78.79488131924714,42.965111065274314]]]},"properties":{"feature_id":"usace-density-156","layer_type":"2005_report_symbol_density","density_class":"higher","symbol_pixels":581,"permit_color_pixels":539,"inquiry_color_pixels":42,"report_totals":"501 repair permits (1987-2004); 594 inquiries (2000-March 2005)","source_id":"usace-2005-figure-23","confidence":"agency_map_approximation","privacy_treatment":"Household points replaced with coarse relative-density cells","boundary_note":"Approximate affine alignment from the published report figure","causal_claim":"none","last_reviewed":"2026-08-03"}},{"type":"Feature","geometry":{"type":"Polygon","coordinates":[[[-78.7872905701269,42.965111065274314],[-78.7872905701269,42.97157672579454],[-78.77986850432045,42.97157672579454],[-78.77986850432045,42.965111065274314],[-78.7872905701269,42.965111065274314]]]},"properties":{"feature_id":"usace-density-157","layer_type":"2005_report_symbol_density","density_class":"moderate","symbol_pixels":184,"permit_color_pixels":112,"inquiry_color_pixels":72,"report_totals":"501 repair permits (1987-2004); 594 inquiries (2000-March 2005)","source_id":"usace-2005-figure-23","confidence":"agency_map_approximation","privacy_treatment":"Household points replaced with coarse relative-density cells","boundary_note":"Approximate affine alignment from the published report figure","causal_claim":"none","last_reviewed":"2026-08-03"}},{"type":"Feature","geometry":{"type":"Polygon","coordinates":[[[-78.77986850432045,42.965111065274314],[-78.77986850432045,42.97157672579454],[-78.77227775520021,42.97157672579454],[-78.77227775520021,42.965111065274314],[-78.77986850432045,42.965111065274314]]]},"properties":{"feature_id":"usace-density-158","layer_type":"2005_report_symbol_density","density_class":"moderate","symbol_pixels":260,"permit_color_pixels":260,"inquiry_color_pixels":0,"report_totals":"501 repair permits (1987-2004); 594 inquiries (2000-March 2005)","source_id":"usace-2005-figure-23","confidence":"agency_map_approximation","privacy_treatment":"Household points replaced with coarse relative-density cells","boundary_note":"Approximate affine alignment from the published report figure","causal_claim":"none","last_reviewed":"2026-08-03"}},{"type":"Feature","geometry":{"type":"Polygon","coordinates":[[[-78.81748488329409,42.965111065274314],[-78.81748488329409,42.9587747179645],[-78.82382034676581,42.9587747179645],[-78.8237529842525,42.96050471797936],[-78.82373992610489,42.960873793009085],[-78.82373446553898,42.961025731353985],[-78.82371303421179,42.96164314217223],[-78.82368129298327,42.96236656940007],[-78.82362523869963,42.963677889364114],[-78.82361588162541,42.96391352313687],[-78.82361331858871,42.9639749358083],[-78.82356673081959,42.965111065274314],[-78.81748488329409,42.965111065274314]]]},"properties":{"feature_id":"usace-density-163","layer_type":"2005_report_symbol_density","density_class":"moderate","symbol_pixels":320,"permit_color_pixels":262,"inquiry_color_pixels":58,"report_totals":"501 repair permits (1987-2004); 594 inquiries (2000-March 2005)","source_id":"usace-2005-figure-23","confidence":"agency_map_approximation","privacy_treatment":"Household points replaced with coarse relative-density cells","boundary_note":"Approximate affine alignment from the published report figure","causal_claim":"none","last_reviewed":"2026-08-03"}},{"type":"Feature","geometry":{"type":"Polygon","coordinates":[[[-78.81748488329409,42.9587747179645],[-78.81748488329409,42.965111065274314],[-78.80989413417385,42.965111065274314],[-78.80989413417385,42.961044420044296],[-78.81080612325334,42.96068036147249],[-78.81098052038085,42.96061141855994],[-78.8110621426478,42.960579372684435],[-78.81115678381371,42.96054214240464],[-78.81266292281012,42.959947149487796],[-78.81387991042583,42.95945937285153],[-78.81391303403127,42.959445943588435],[-78.81495144032495,42.95903981536502],[-78.81562946690373,42.9587747179645],[-78.81748488329409,42.9587747179645]]]},"properties":{"feature_id":"usace-density-164","layer_type":"2005_report_symbol_density","density_class":"moderate","symbol_pixels":249,"permit_color_pixels":249,"inquiry_color_pixels":0,"report_totals":"501 repair permits (1987-2004); 594 inquiries (2000-March 2005)","source_id":"usace-2005-figure-23","confidence":"agency_map_approximation","privacy_treatment":"Household points replaced with coarse relative-density cells","boundary_note":"Approximate affine alignment from the published report figure","causal_claim":"none","last_reviewed":"2026-08-03"}},{"type":"Feature","geometry":{"type":"Polygon","coordinates":[[[-78.80989413417385,42.965111065274314],[-78.8024720683674,42.965111065274314],[-78.8024720683674,42.9587747179645],[-78.80787157229182,42.9587747179645],[-78.80787206215385,42.95887384222016],[-78.80787245255297,42.95898120828257],[-78.80809895219326,42.95898144972262],[-78.80876063039281,42.95898184974983],[-78.80880919484511,42.95898175409942],[-78.80895070548954,42.95898183196925],[-78.80896230926606,42.959223267838645],[-78.80896553084706,42.959338146456396],[-78.80897519336138,42.95968215121436],[-78.8089752259467,42.95969106865954],[-78.80897737075959,42.95976684954181],[-78.80897899589617,42.95982309524272],[-78.80898273482195,42.959956850508696],[-78.80898335332806,42.95999320528749],[-78.80898492487557,42.96004500605655],[-78.80898657629791,42.96010844058677],[-78.8089876080095,42.96013519107912],[-78.80898872625521,42.96018562081603],[-78.8089924602137,42.960318004158594],[-78.8089929947015,42.9603313656483],[-78.8089972808178,42.96048193961549],[-78.80900048128073,42.96059100128948],[-78.80900103737761,42.9606204965657],[-78.80900210169526,42.960656164499156],[-78.80900746341551,42.96084547947772],[-78.80901336217725,42.96104884189474],[-78.8090182070194,42.96122959707211],[-78.8090230227588,42.961392160587216],[-78.80989413417385,42.961044420044296],[-78.80989413417385,42.965111065274314]]]},"properties":{"feature_id":"usace-density-165","layer_type":"2005_report_symbol_density","density_class":"moderate","symbol_pixels":281,"permit_color_pixels":138,"inquiry_color_pixels":143,"report_totals":"501 repair permits (1987-2004); 594 inquiries (2000-March 2005)","source_id":"usace-2005-figure-23","confidence":"agency_map_approximation","privacy_treatment":"Household points replaced with coarse relative-density cells","boundary_note":"Approximate affine alignment from the published report figure","causal_claim":"none","last_reviewed":"2026-08-03"}},{"type":"Feature","geometry":{"type":"Polygon","coordinates":[[[-78.8024720683674,42.9587747179645],[-78.8024720683674,42.965111065274314],[-78.79488131924714,42.965111065274314],[-78.79488131924714,42.9587747179645],[-78.8024720683674,42.9587747179645]]]},"properties":{"feature_id":"usace-density-166","layer_type":"2005_report_symbol_density","density_class":"moderate","symbol_pixels":235,"permit_color_pixels":167,"inquiry_color_pixels":68,"report_totals":"501 repair permits (1987-2004); 594 inquiries (2000-March 2005)","source_id":"usace-2005-figure-23","confidence":"agency_map_approximation","privacy_treatment":"Household points replaced with coarse relative-density cells","boundary_note":"Approximate affine alignment from the published report figure","causal_claim":"none","last_reviewed":"2026-08-03"}},{"type":"Feature","geometry":{"type":"Polygon","coordinates":[[[-78.77227775520021,42.9587747179645],[-78.77227775520021,42.965111065274314],[-78.76468700607995,42.965111065274314],[-78.76468700607995,42.9587747179645],[-78.77227775520021,42.9587747179645]]]},"properties":{"feature_id":"usace-density-167","layer_type":"2005_report_symbol_density","density_class":"moderate","symbol_pixels":263,"permit_color_pixels":149,"inquiry_color_pixels":114,"report_totals":"501 repair permits (1987-2004); 594 inquiries (2000-March 2005)","source_id":"usace-2005-figure-23","confidence":"agency_map_approximation","privacy_treatment":"Household points replaced with coarse relative-density cells","boundary_note":"Approximate affine alignment from the published report figure","causal_claim":"none","last_reviewed":"2026-08-03"}},{"type":"Feature","geometry":{"type":"Polygon","coordinates":[[[-78.7872905701269,42.952309057444275],[-78.77986850432045,42.952309057444275],[-78.77986850432045,42.94913492157007],[-78.77987626968064,42.94913496845421],[-78.78007423420513,42.949135314347814],[-78.78016806306951,42.94913583900953],[-78.78029834688707,42.949136300873725],[-78.78063264835107,42.94913778305874],[-78.78084275427734,42.94913879265964],[-78.78104632257491,42.949139456465716],[-78.78122467877836,42.94914019093645],[-78.7812638977329,42.94914012313005],[-78.78140535068295,42.94914089368386],[-78.78143665114382,42.949140839519565],[-78.78160566950734,42.949141589556376],[-78.78161967513185,42.94914120859561],[-78.78178868574037,42.949139543783716],[-78.78182136714304,42.94913915785755],[-78.78196654755772,42.94913753410116],[-78.78202212641403,42.94913743764564],[-78.78216499765662,42.949137875536444],[-78.78218927605477,42.94913783336321],[-78.78234615291763,42.9491378899958],[-78.7823620272547,42.94913786239645],[-78.78252962511348,42.94913825683773],[-78.78266876015861,42.94913837133873],[-78.78272056758662,42.949138610373986],[-78.78338730197986,42.94914123362301],[-78.78395785429142,42.94914330819793],[-78.78406897687839,42.94914379935145],[-78.78420112829423,42.949144253498694],[-78.78423986167628,42.94914418552475],[-78.7844037629282,42.949144940410974],[-78.78456015646628,42.94914568082192],[-78.78477074695064,42.949146353098826],[-78.78493883147709,42.94914707241888],[-78.78511065006909,42.94914745564764],[-78.78528198426041,42.94914819617416],[-78.78545148814742,42.94914891223746],[-78.78562375612947,42.949149650603644],[-78.78569801067465,42.9491495193586],[-78.78571575365923,42.949149817253236],[-78.78590438155028,42.94915052627192],[-78.78609114178539,42.9491512108494],[-78.78645719550707,42.9491536624431],[-78.78647493849604,42.94915396022005],[-78.78653843701804,42.94915420421819],[-78.78658744428766,42.94915480317516],[-78.78679288248925,42.94915613940526],[-78.78700254258061,42.94915782445612],[-78.7871865026665,42.94915886892961],[-78.7872905701269,42.949159610195046],[-78.7872905701269,42.952309057444275]]]},"properties":{"feature_id":"usace-density-176","layer_type":"2005_report_symbol_density","density_class":"moderate","symbol_pixels":174,"permit_color_pixels":103,"inquiry_color_pixels":71,"report_totals":"501 repair permits (1987-2004); 594 inquiries (2000-March 2005)","source_id":"usace-2005-figure-23","confidence":"agency_map_approximation","privacy_treatment":"Household points replaced with coarse relative-density cells","boundary_note":"Approximate affine alignment from the published report figure","causal_claim":"none","last_reviewed":"2026-08-03"}}]}