{"type":"FeatureCollection","name":"Surficial geology","description":"NY State Museum regional geology via Erie County.","generated":"2026-08-03","features":[{"type":"Feature","geometry":{"type":"Polygon","coordinates":[[[-78.70990170020825,43.082400433663324],[-78.70958649447799,43.08247966584784],[-78.70949774523275,43.082554202792004],[-78.70876825967224,43.08323305030458],[-78.70862691727697,43.08343728830751],[-78.70845602982848,43.083618565459076],[-78.70841183206221,43.08375270280349],[-78.70819494672013,43.084085980943854],[-78.70807611563278,43.084335795451324],[-78.70811923779657,43.08459330800063],[-78.70798430568409,43.08543236880307],[-78.70801813240043,43.085739307141615],[-78.70805345741216,43.08584353264679],[-78.70805383175325,43.08602805207588],[-78.70801704408215,43.08634705766795],[-78.70795341880506,43.086575547420644],[-78.70766766667658,43.0868848637568],[-78.7072879660135,43.08701697751846],[-78.70646677763075,43.087050103587494],[-78.70561744898451,43.087032850447926],[-78.7052889952563,43.087053422685706],[-78.70436597495089,43.086931288842976],[-78.70303461890487,43.08665693842607],[-78.70222634406635,43.08659124416306],[-78.70017569883416,43.08675249610379],[-78.69986132579827,43.086795674645906],[-78.69947857113274,43.08680602371817],[-78.69912850545728,43.08678099843416],[-78.69839400502046,43.08660852390732],[-78.69770945254314,43.086378731867],[-78.69710603381881,43.086254161720966],[-78.69687631393913,43.08626363645234],[-78.69689370537812,43.0741552915082],[-78.69691658968544,43.071346993773865],[-78.69690665702888,43.065967458806966],[-78.69694754302257,43.058723811477115],[-78.69692418975598,43.057728163495746],[-78.69691213610578,43.05271765963446],[-78.69694164556624,43.041214284556794],[-78.699431047595,43.0410066858692],[-78.70295167621765,43.03986621202631],[-78.70615984259967,43.038663735300865],[-78.70757169566279,43.03740241995409],[-78.70906105479283,43.036314145900135],[-78.70906677938325,43.03511195471825],[-78.70969667938165,43.03402005427445],[-78.71009270145292,43.032872718900755],[-78.7100972263719,43.03189566097657],[-78.7099496092827,43.030059178312264],[-78.70940729878964,43.02914039047157],[-78.70902175188176,43.02810846612564],[-78.7089492441087,43.026899809046995],[-78.70958056368063,43.02552424363695],[-78.71200844678667,43.02403630246038],[-78.71693869218961,43.02174663357002],[-78.72014096417233,43.02157939398451],[-78.72162490904347,43.02146354221925],[-78.7236586481671,43.020722000047876],[-78.7253055557863,43.0191151646003],[-78.72609066000543,43.01813966544178],[-78.72843723047143,43.017225768405815],[-78.73180130387847,43.01573836943792],[-78.7328195991793,43.014993808706144],[-78.73290025718299,43.01436090853953],[-78.73251369150553,43.01350016837924],[-78.73181352230218,43.01292428543824],[-78.73064419201414,43.01252128312467],[-78.72814123834924,43.01355287462802],[-78.72477813786527,43.014869061596315],[-78.72157410631422,43.01549568043603],[-78.71931285043695,43.014862508273914],[-78.71736654397834,43.01359328056732],[-78.71612179795466,43.01261633854619],[-78.71604620440372,43.01210107786133],[-78.71612909752916,43.011067446402365],[-78.71644763307101,43.00968850811738],[-78.71965982217007,43.00722499196525],[-78.72052475796906,43.005909288642435],[-78.72123047956161,43.00522002678263],[-78.72139035007164,43.00441798305644],[-78.7211607022195,43.00338102021023],[-78.7204626036226,43.00240432886288],[-78.71921794421378,43.001485940047],[-78.71820587170356,43.000911119365576],[-78.7172717829666,43.000275227259834],[-78.71860177732489,42.999646706727425],[-78.72180639582356,42.99873203402813],[-78.72422861825223,42.99822093289937],[-78.72672836067382,42.99776577785654],[-78.72899737490329,42.99656177832684],[-78.73220427586705,42.995016474367844],[-78.73658747209504,42.99214958155522],[-78.73838946713622,42.99060501704954],[-78.74104900777945,42.98917191143967],[-78.74347372559146,42.98791300714964],[-78.74550546775264,42.987283693544434],[-78.74917598866428,42.98665461023059],[-78.75752366782945,42.98729430777857],[-78.75994098080922,42.987813545794154],[-78.7629048310335,42.988278721782734],[-78.76384072858987,42.98845048394827],[-78.76454154607444,42.98885507741492],[-78.765164175619,42.989253239520046],[-78.76594085306213,42.99029009080662],[-78.76679539903445,42.99132436995733],[-78.76694865317468,42.992012608715434],[-78.76709604910279,42.99424968854001],[-78.76724668759813,42.99574385029638],[-78.76700868099027,42.99677812642886],[-78.76676917964704,42.99815459405275],[-78.76629531073591,42.9995883077415],[-78.76636983305241,43.0005087380898],[-78.76597619280298,43.0013680677252],[-78.76573911893362,43.00211419060877],[-78.76565544928985,43.003607073818124],[-78.76518127355575,43.00509931880925],[-78.76408230459361,43.0067066847669],[-78.76298391602634,43.00807992298286],[-78.76227584125742,43.00951683244181],[-78.76211643477765,43.010377439310254],[-78.76234529671727,43.01175648530844],[-78.76218321204878,43.01324744414082],[-78.76249204030002,43.0141061395116],[-78.76404918678705,43.01525685783064],[-78.76506339900371,43.01548905415374],[-78.76701638032871,43.01526261674416],[-78.76873535238836,43.01485928714335],[-78.77037676010134,43.014404468949984],[-78.77256176616059,43.0146924989271],[-78.77373081544656,43.01520762590021],[-78.77537243330316,43.01469420459678],[-78.77631406270865,43.01343407453817],[-78.77686620745155,43.0118851853883],[-78.77741942499271,43.01004813761589],[-78.77765875782197,43.00861312890723],[-78.77774294056556,43.00694915102976],[-78.77782336999232,43.00625770398505],[-78.77798254829823,43.005397083271426],[-78.77868792343078,43.00465345707276],[-78.78063913676627,43.00471046509075],[-78.78204269209608,43.00517272989012],[-78.78391490833666,43.00551591526602],[-78.78750548661367,43.00563555364722],[-78.78836388866901,43.00575115700727],[-78.79015894982217,43.00580867672022],[-78.79281376201934,43.005639551051615],[-78.79765939463661,43.00392095356685],[-78.79953510936058,43.00317431161545],[-78.8015695358531,43.0017425748742],[-78.80336804589375,43.000768842572654],[-78.80798018369833,42.99858938866031],[-78.81227789713957,42.996982974437614],[-78.81657321882302,42.99612378863358],[-78.81977299258986,42.996241959636144],[-78.82248021036392,42.996460944559566],[-78.82239470948076,43.00178954662805],[-78.82218796149144,43.02428482891726],[-78.82222314947205,43.031073642707526],[-78.82428255386979,43.03106863962258],[-78.82429621086669,43.03085972426483],[-78.8243489004117,43.03070458778992],[-78.82444232451022,43.030560340737885],[-78.82462772077578,43.03038846158855],[-78.82485012971543,43.03024188432213],[-78.8251529709408,43.030091377676506],[-78.82543261910253,43.02999714006012],[-78.82574420876372,43.02993200086368],[-78.82610034046967,43.029904493802995],[-78.82656889322972,43.02993266571544],[-78.82774902220487,43.03009099397435],[-78.82846080068059,43.03014914967486],[-78.82896712933496,43.0301487500533],[-78.82923954517685,43.03011798309924],[-78.82955151854163,43.030037412475295],[-78.82979047819492,43.02993639220179],[-78.8301132626183,43.02975427596138],[-78.82975463424523,43.03009185166911],[-78.8293357156042,43.030318074943246],[-78.82881075141546,43.030560328577685],[-78.82793950258929,43.031079732266534],[-78.82689037920707,43.03178438616552],[-78.82646470423899,43.032199607171194],[-78.82621312176359,43.032546191142785],[-78.82558726972529,43.03377230108899],[-78.8254787172371,43.03411240693226],[-78.82547161097648,43.03444546600014],[-78.82555952714966,43.0345642791126],[-78.82557292038776,43.03464107752443],[-78.82565811721692,43.03479112091502],[-78.8257636040186,43.035220990144765],[-78.82606689156671,43.035775969309576],[-78.82625336504846,43.03622522961118],[-78.82633310986809,43.036528251543196],[-78.82661763172516,43.03919460414429],[-78.82675838036107,43.03967447169763],[-78.827079599065,43.04013990652283],[-78.82720546879085,43.04040337338979],[-78.82800722375458,43.041300945793445],[-78.82859776176072,43.04176717203074],[-78.82880639563295,43.04202327089392],[-78.82944847552207,43.04251267702697],[-78.82992273901759,43.04312045245796],[-78.83005026250723,43.04332527731409],[-78.83014463948909,43.04341732065154],[-78.8305797778181,43.04406940780395],[-78.83072435570308,43.04420697172932],[-78.8312051634513,43.04504004899238],[-78.83154140759403,43.04551468491123],[-78.8317118639613,43.0458062013466],[-78.83189428598858,43.046160771625956],[-78.8320176919672,43.04650073561634],[-78.83221684439559,43.04682851686467],[-78.83230985663867,43.047163744930884],[-78.8323958588631,43.04727331006588],[-78.83249769788172,43.047820148545945],[-78.83246055043573,43.04846776768356],[-78.83225885575074,43.04889143863287],[-78.8322481050974,43.04900840300718],[-78.83213251944642,43.04910537349992],[-78.83194121416594,43.049443963283714],[-78.83169959043276,43.0497185392202],[-78.83159188012807,43.049792855669395],[-78.83159688444312,43.04987411631681],[-78.83151912294068,43.04996244345868],[-78.83085637974364,43.0505263588513],[-78.83008880457639,43.051074719555636],[-78.82953375121966,43.05132079955383],[-78.828511363802,43.051652580231796],[-78.82794799090257,43.05170043046374],[-78.82701499938153,43.05182213306652],[-78.82632529155367,43.051845193292955],[-78.82446527870313,43.051706120378526],[-78.82325044557356,43.05151213481693],[-78.8227847855488,43.05154809357898],[-78.82166099347026,43.05155834154781],[-78.82134754359986,43.05152982722102],[-78.82073971811357,43.05156780185285],[-78.81991525910406,43.05157464007447],[-78.81916651606977,43.051569325940996],[-78.81707991142059,43.05148890552817],[-78.81662135178371,43.05154334539294],[-78.81482356394874,43.05152710339278],[-78.81407976444765,43.05160268822194],[-78.81340164847022,43.05172478087169],[-78.81272478113596,43.05181119753735],[-78.81205288803585,43.05197818578799],[-78.81024391209708,43.05273600378927],[-78.80956110934913,43.05299318785073],[-78.80900888178492,43.05314930307978],[-78.80858433925812,43.053303106544824],[-78.80755938878396,43.05349512772676],[-78.80676685817055,43.05367812553995],[-78.80597835701396,43.05394202476896],[-78.80532173696207,43.05433017664046],[-78.80521184096993,43.05446313498727],[-78.80495678776862,43.05468346271621],[-78.8045911616902,43.05509952714848],[-78.80453369762148,43.055247117655526],[-78.80444708692022,43.05535325069289],[-78.80442704055179,43.0555014547902],[-78.80445801015014,43.05592531251367],[-78.80466882389499,43.05654193135512],[-78.80497628318962,43.05697998799069],[-78.80553054625948,43.05763435267449],[-78.80591622526582,43.05797040489095],[-78.80653798338747,43.058400985987866],[-78.80666013946941,43.05855201346866],[-78.80686492467588,43.058911737603644],[-78.80689814131837,43.059042689234175],[-78.80683486961362,43.05913610206424],[-78.80692709080789,43.059286474283006],[-78.80696005723598,43.059863294045876],[-78.8070808590091,43.06028903300685],[-78.80725574908737,43.06130526902145],[-78.80721195108673,43.06147547032344],[-78.80718023841355,43.06175847301016],[-78.80708988647193,43.061999774857775],[-78.8070873256474,43.062067332204734],[-78.80686417993316,43.062445726700965],[-78.8063732721492,43.06302631216882],[-78.8061644024512,43.06321571197112],[-78.80555159229048,43.0635866305025],[-78.80548091018098,43.063702336536146],[-78.80492972344047,43.0640522243362],[-78.80487521990258,43.06410959293145],[-78.80408073847475,43.06457140043984],[-78.80380280004387,43.06480927481032],[-78.80195450697217,43.065831812482216],[-78.80146081552947,43.066038539400786],[-78.80061933648604,43.066314849243504],[-78.80023459240334,43.0663886464587],[-78.7997190124717,43.06636525755247],[-78.79891402385867,43.06625085135015],[-78.79738210286153,43.066135743599],[-78.79698279369023,43.06618656408563],[-78.79583138398388,43.066123899379456],[-78.79438635310751,43.066113869666744],[-78.79245709003253,43.06620727078823],[-78.79211854694977,43.06624597286067],[-78.79112047634156,43.06629854966185],[-78.78897401431303,43.06663099664732],[-78.78660783276021,43.066594067086875],[-78.784847293116,43.06637081737822],[-78.78432460979198,43.0663247353212],[-78.78324569116684,43.06611022181959],[-78.7822887145612,43.06585328654771],[-78.78120933886429,43.06564319953733],[-78.78020975611194,43.0655156082372],[-78.77927585741351,43.06544793014068],[-78.77762530498812,43.06551522355486],[-78.776765178777,43.06570087182162],[-78.7765833814994,43.06576049986931],[-78.77579995729849,43.06608731694142],[-78.7753418330493,43.06633982999528],[-78.77484670912652,43.06657319654266],[-78.77476096794193,43.0666796621727],[-78.77456201402966,43.06678354570815],[-78.77414051816373,43.06707270474181],[-78.77345493210971,43.067595167350156],[-78.77322572303787,43.067743712982086],[-78.77276515119986,43.0682661270492],[-78.77243385238377,43.06853866760426],[-78.77232390200658,43.06868528567494],[-78.77159918732656,43.0692609764353],[-78.77064141767003,43.06966552948829],[-78.77041517571202,43.069723876002925],[-78.77032276365202,43.06979432309443],[-78.76969667921071,43.069903724347895],[-78.7689690213162,43.07013711453444],[-78.76813383823365,43.07024684622862],[-78.76758695476165,43.07024978589898],[-78.76701505992772,43.0703241018099],[-78.76620487976278,43.07034872160309],[-78.76605386886769,43.07038633330986],[-78.76588876625705,43.07039208439723],[-78.76363350830503,43.070411107402165],[-78.76331201723141,43.07038244689604],[-78.76269215851914,43.070541188364295],[-78.76244124820026,43.0706400287635],[-78.76136219655397,43.070870819484476],[-78.76042042528206,43.07101460138842],[-78.75933992232513,43.07107012903406],[-78.75762081531208,43.07095066118009],[-78.75744949579271,43.07091593863598],[-78.7571764057704,43.070798013884236],[-78.75691658085103,43.07072536843073],[-78.755979322012,43.07031966173822],[-78.75509941553211,43.06999620260827],[-78.75439826910971,43.06968994760483],[-78.75376934948301,43.069461422175245],[-78.75304544546337,43.069379854857694],[-78.75219123415134,43.069381118458026],[-78.75037238113362,43.06955253128493],[-78.74972645635755,43.06958914162393],[-78.74963416466281,43.069546746937846],[-78.7494232519311,43.069565217160736],[-78.74911162648482,43.06954097483877],[-78.74773775234914,43.069576925029935],[-78.7473731983689,43.06952051441797],[-78.74667316062053,43.069276961140204],[-78.74626753091115,43.06908445837525],[-78.74493951481449,43.06875192735294],[-78.74409606939602,43.06857339659286],[-78.7434367472752,43.068492692928245],[-78.74241102890265,43.068202594843505],[-78.74210029023637,43.06815569585804],[-78.74101597433017,43.068170584789385],[-78.7402613463769,43.06850224969311],[-78.73994761114764,43.06874824935482],[-78.73977244133648,43.069032801214384],[-78.7396766869038,43.06927405698412],[-78.7396193623622,43.0695430274001],[-78.73963174900152,43.0698225210664],[-78.73969757426482,43.07012973638835],[-78.7396882921156,43.070350295462276],[-78.73972587669178,43.07058964035693],[-78.73985428862147,43.07087138988216],[-78.73997660913363,43.07095043590319],[-78.74004368660847,43.07102821302122],[-78.74008428775686,43.07117289266895],[-78.7400932007696,43.071542250284644],[-78.74027065157456,43.07197346898596],[-78.74033071961061,43.0722223860629],[-78.74033958965518,43.07239833352483],[-78.74057318328101,43.07337068827584],[-78.74093737386823,43.07381912702732],[-78.74128033644826,43.07401516493004],[-78.74141586648702,43.07414840837971],[-78.74152050881084,43.07445213904621],[-78.74148830214533,43.0746630992059],[-78.74139038651252,43.074967109723616],[-78.74103602539206,43.07562646576479],[-78.74022753365905,43.07634439322985],[-78.73960259337964,43.07675989057278],[-78.73876578047346,43.07739177329695],[-78.73869956707235,43.07748035054331],[-78.73832708606437,43.077828631419635],[-78.73822780629781,43.07797075713047],[-78.73791045279641,43.07828878027026],[-78.73768667532295,43.07860837764028],[-78.73734244773237,43.07903379986238],[-78.7370781175444,43.07979863085932],[-78.73695011332786,43.08005707575336],[-78.73654587582926,43.081566346540505],[-78.73634952233306,43.082008359638344],[-78.73627403118432,43.08213261709971],[-78.73582157220562,43.08270014296282],[-78.73569931989284,43.08283716609547],[-78.7353757750662,43.08311916420272],[-78.73487740303786,43.0834874931907],[-78.73474764861734,43.083619723590076],[-78.73417821239312,43.08400013385786],[-78.73354294482711,43.08426678787932],[-78.7323956402203,43.08466715282741],[-78.73146861825819,43.084833669940124],[-78.72992836192381,43.08528906466566],[-78.72825876797543,43.08607111342174],[-78.72803762353854,43.086143088500094],[-78.72780141415612,43.086192418410036],[-78.72713700056636,43.08621520558013],[-78.72619452115184,43.0859804201916],[-78.72555224853292,43.085864279909174],[-78.72532180718657,43.085769548644336],[-78.72505959802696,43.08569683401534],[-78.7238390278459,43.08539342184689],[-78.72361743229136,43.08528531402461],[-78.72271917867411,43.08453359805359],[-78.72233604504697,43.08436839404192],[-78.72186952877973,43.08394504418364],[-78.72180377413731,43.08383572884942],[-78.72166822767454,43.083702462260725],[-78.7213694575816,43.08317875905304],[-78.7210059092836,43.08234302674527],[-78.72079622374275,43.08211348631339],[-78.72067311474146,43.08188145451736],[-78.72036380939679,43.08144314794841],[-78.71989549025307,43.08125370021382],[-78.71939977799481,43.08116753200932],[-78.719029885064,43.08105204602481],[-78.71892927173872,43.08103638848447],[-78.71852751123392,43.08111849168758],[-78.71780708101467,43.081383073767746],[-78.71735279451335,43.08161718568017],[-78.71688260560443,43.08206255880115],[-78.71648254193373,43.082500330424715],[-78.71559994557366,43.08308611064342],[-78.71496337214221,43.083213058967196],[-78.71455723589641,43.083218327041855],[-78.71402890246917,43.083180875290324],[-78.71297216470867,43.08287614463296],[-78.7121423624171,43.08255775928457],[-78.71154736535172,43.08241094870131],[-78.71144056520656,43.082354491338734],[-78.71083537987595,43.082274911336185],[-78.71064029271487,43.082279930167296],[-78.71015997603018,43.0823963886761],[-78.70990170020825,43.082400433663324]]]},"properties":{"feature_id":"geology-001","layer_type":"surficial_geology","material_code":"lsc","unit_name":"Lacustrine Silt and Clay","report_context":"Broad lacustrine silt and clay unit discussed in the 2005 USACE study","source_id":"nysm-surficial-geology","confidence":"documented_geometry","scale_note":"1:250,000 source; not suitable for parcel conclusions","causal_claim":"none","last_reviewed":"2026-08-03"}},{"type":"Feature","geometry":{"type":"MultiPolygon","coordinates":[[[[-78.7446473489546,42.96862442299501],[-78.74511203223011,42.969487067094185],[-78.74581116608451,42.97017545364397],[-78.74666570563627,42.97109734136458],[-78.74736326896658,42.97212791468235],[-78.74720245750657,42.97327667112322],[-78.7468846620413,42.974714194776446],[-78.74672312897958,42.976034046284674],[-78.74702857685679,42.97758168899026],[-78.74819334202827,42.97896158957805],[-78.74959571975471,42.97947831981003],[-78.75146804302845,42.979596944856326],[-78.75256101967938,42.97948452632322],[-78.75537310162856,42.97868084775786],[-78.75693482560182,42.97845394001141],[-78.75904040833568,42.978803372161615],[-78.76090952679147,42.97972328500829],[-78.76231077937686,42.980586541495505],[-78.76347698886421,42.98161958944342],[-78.76464094740149,42.983282964793005],[-78.7651808175028,42.98494888451818],[-78.76540986099431,42.98626939528889],[-78.76548302982462,42.987532015076056],[-78.76508790010578,42.98885508417085],[-78.76494845232926,42.98911628657915],[-78.76384072858987,42.98845048394827],[-78.7629048310335,42.988278721782734],[-78.75994098080922,42.987813545794154],[-78.75752366782945,42.98729430777857],[-78.74917598866428,42.98665461023059],[-78.74550546775264,42.987283693544434],[-78.74347372559146,42.98791300714964],[-78.74104900777945,42.98917191143967],[-78.73838946713622,42.99060501704954],[-78.73658747209504,42.99214958155522],[-78.73220427586705,42.995016474367844],[-78.72899737490329,42.99656177832684],[-78.72672836067382,42.99776577785654],[-78.72422861825223,42.99822093289937],[-78.72180639582356,42.99873203402813],[-78.71860177732489,42.999646706727425],[-78.7172717829666,43.000275227259834],[-78.71820587170356,43.000911119365576],[-78.71921794421378,43.001485940047],[-78.7204626036226,43.00240432886288],[-78.7211607022195,43.00338102021023],[-78.72139035007164,43.00441798305644],[-78.72123047956161,43.00522002678263],[-78.72052475796906,43.005909288642435],[-78.71965982217007,43.00722499196525],[-78.71644763307101,43.00968850811738],[-78.71612909752916,43.011067446402365],[-78.71604620440372,43.01210107786133],[-78.71612179795466,43.01261633854619],[-78.71636640041787,43.01280646711373],[-78.71596360911042,43.01307617453407],[-78.7141654647837,43.01358932862307],[-78.71166588744309,43.013814609158906],[-78.70908588459892,43.014560165324916],[-78.70650697403413,43.01501300342233],[-78.70392817250502,43.01552880629561],[-78.70182125570354,43.01523692927852],[-78.70080909960475,43.01466195792481],[-78.7001884910583,43.01385820669008],[-78.70011315100969,43.013284402291],[-78.70019402408742,43.012710041153845],[-78.70121298721673,43.01190721489176],[-78.70434451500344,43.010072505407365],[-78.70536477724731,43.00904450451107],[-78.70669632248206,43.00812794892875],[-78.71045467426654,43.005777527492775],[-78.71170672241644,43.00514711515573],[-78.7124171350812,43.00348534273982],[-78.7122653575427,43.00256738256008],[-78.71179923903011,43.00204679743894],[-78.7101598558527,43.00210453948109],[-78.70867495737073,43.00244536576492],[-78.70632942925533,43.0031877493311],[-78.70562487309368,43.00364728460828],[-78.70406146405399,43.00404462094747],[-78.70336135096854,43.003527083100145],[-78.70282351467264,43.00180677474745],[-78.70212627707714,43.0006543670368],[-78.70127264532302,42.9996195684466],[-78.70041860581878,42.9987018270461],[-78.69925319652405,42.997609580445754],[-78.69746107060134,42.99691576238691],[-78.69693798684861,42.996844338037654],[-78.69696521121129,42.9859125494873],[-78.69692778507496,42.98056588731397],[-78.69692882504542,42.965132477857594],[-78.69695390435447,42.958458396496425],[-78.69694109960386,42.9512540951151],[-78.71341873169207,42.951203958642026],[-78.72472242819858,42.95112881813526],[-78.72474396195469,42.94585032718961],[-78.72572720030496,42.945854596052456],[-78.72600420367596,42.94591118617125],[-78.72678886443346,42.946257303374765],[-78.7274598116665,42.9464790422073],[-78.72806894318862,42.94682572816781],[-78.72851110126865,42.94703507324801],[-78.72940286112593,42.94704387156229],[-78.72977508627079,42.94708765438185],[-78.72985921055295,42.94712390282371],[-78.7301178172904,42.94730946774912],[-78.73052873306814,42.947726692146034],[-78.73111906249808,42.948195460100905],[-78.73120571873397,42.948305459110756],[-78.73128375345449,42.94852725386233],[-78.7313103588844,42.94910891676685],[-78.73138461165806,42.94951321009454],[-78.73143068983937,42.94964759937471],[-78.73164556557741,42.95007912158291],[-78.7324453583724,42.95104186137528],[-78.73015196935235,42.95107122170928],[-78.73087932358419,42.95416055132358],[-78.73199624186502,42.95416665181032],[-78.73212225589045,42.9647940777672],[-78.73386302956825,42.96450679834832],[-78.7338642754716,42.964634714883346],[-78.73321071532966,42.964740524659156],[-78.73319291754355,42.96895202304092],[-78.72967418165226,42.96952660960667],[-78.72966274687595,42.97239460028134],[-78.73012936061849,42.9723909297138],[-78.73166645296799,42.97160558066805],[-78.73392746975425,42.97004824037595],[-78.73394515910744,42.96696139072102],[-78.73479482231477,42.96682650708461],[-78.73480480074156,42.96708647332792],[-78.73569444213709,42.967072945309205],[-78.73568157235133,42.966778355649346],[-78.7357912724769,42.96694659944792],[-78.73770506771893,42.96690973637227],[-78.73780322991908,42.97590255344612],[-78.73950769585099,42.975920819373556],[-78.73948876593919,42.97397751873415],[-78.74277614777446,42.9739980106262],[-78.74278038888292,42.97383167295658],[-78.74428440261153,42.973835741649914],[-78.74424054482563,42.96991246315614],[-78.74338231256714,42.96908535442229],[-78.74331357572916,42.968873845157795],[-78.74437051878463,42.96870325986924],[-78.74437169725437,42.96898313044311],[-78.74455052902925,42.9689581841016],[-78.74455713601508,42.968455035851285],[-78.74467881898401,42.968454920453205],[-78.7446473489546,42.96862442299501]]],[[[-78.81977299258986,42.996241959636144],[-78.81657321882302,42.99612378863358],[-78.81227789713957,42.996982974437614],[-78.80798018369833,42.99858938866031],[-78.80530638431436,42.999853452595985],[-78.80547963737006,42.99944701657905],[-78.80766905151785,42.99818558518349],[-78.80970166546776,42.99715443409874],[-78.81079827844776,42.99595188256329],[-78.8112715131207,42.99434243711019],[-78.81150928640866,42.99313700934227],[-78.81112253083626,42.99204695175195],[-78.81057913800859,42.99107016080063],[-78.80987852058524,42.99055329877557],[-78.809176447407,42.990437147474125],[-78.807849225015,42.99061193800227],[-78.80589587385832,42.99135679825596],[-78.8034737265452,42.99215774784219],[-78.80073959397899,42.992960019506896],[-78.79886391776279,42.993702176410785],[-78.79597213534976,42.99490574074515],[-78.79354944468075,42.99582354643477],[-78.79221973708357,42.99668252394082],[-78.78971770748045,42.9979450243449],[-78.7868265939569,42.99886021541145],[-78.78370285212264,42.99931934423734],[-78.77979988514855,42.999371985496936],[-78.77581679873617,42.9999403548072],[-78.77152268901209,43.0002262294055],[-78.76972606947204,43.0005691340775],[-78.76636983305241,43.0005087380898],[-78.76629531073591,42.9995883077415],[-78.76676917964704,42.99815459405275],[-78.76700868099027,42.99677812642886],[-78.76724668759813,42.99574385029638],[-78.76709604910279,42.99424968854001],[-78.76694865317468,42.992012608715434],[-78.76804487467531,42.99103557143128],[-78.76882973674299,42.989947242690036],[-78.76961259548696,42.9893181669398],[-78.77149237593093,42.98754092093259],[-78.7718873599139,42.98621783455761],[-78.77212829522387,42.98438211477884],[-78.77128037115804,42.98162793489778],[-78.77019429090105,42.979962058622924],[-78.76848449965809,42.97818168560105],[-78.7664631554103,42.976226977305316],[-78.76467274166829,42.975133490107055],[-78.7631923163233,42.97455648881233],[-78.76069987519838,42.97346354553468],[-78.75828587503959,42.9723139448031],[-78.75641634332409,42.97156507261579],[-78.75353602989257,42.96995349630524],[-78.75158958267495,42.96897747329024],[-78.74925506313039,42.96754144966221],[-78.74850533721369,42.96693017446743],[-78.75544014023183,42.96695921429824],[-78.75540275040463,42.961426329395735],[-78.75543203214545,42.956852644186846],[-78.75481146011322,42.95684910303005],[-78.75482246911768,42.956280094112756],[-78.7540078748333,42.95651934068118],[-78.7531935198498,42.956521923924136],[-78.75318790136404,42.95685599614058],[-78.74911606349843,42.95685406343021],[-78.7445923514794,42.95421476654122],[-78.74460053105172,42.95681798442799],[-78.73816775268656,42.95680458631132],[-78.73816463109738,42.95667700144872],[-78.73718618465716,42.952472681048135],[-78.73681596904086,42.949118816325715],[-78.75529696580972,42.94908947200871],[-78.76584234516129,42.94913556719456],[-78.78266876015861,42.94913837133873],[-78.79165946986282,42.94919233046325],[-78.7983861908487,42.94933757655985],[-78.79988030633099,42.95039178058861],[-78.8013586995631,42.951598640517574],[-78.80322709478726,42.952864532600536],[-78.80486205239731,42.953841040768864],[-78.80636430453598,42.954683679518595],[-78.80399004998827,42.954657590099984],[-78.80397309087813,42.95644559848524],[-78.80783766576342,42.956472025683055],[-78.80787245255297,42.95898120828257],[-78.80895070548954,42.95898183196925],[-78.8090230227588,42.961392160587216],[-78.81408148775631,42.95938006011634],[-78.81545302729774,42.960281263099624],[-78.81693299506559,42.961145721188224],[-78.81841320893693,42.961951627310285],[-78.82028179517228,42.963212726118286],[-78.82191655802987,42.96459416138368],[-78.82354094120049,42.965740157973286],[-78.82297850163123,42.97969434388068],[-78.82263953947239,42.98889203809324],[-78.82257213896392,42.990912656284905],[-78.82248021036392,42.996460944559566],[-78.81977299258986,42.996241959636144]]]]},"properties":{"feature_id":"geology-002","layer_type":"surficial_geology","material_code":"t","unit_name":"Till","report_context":"Regional geologic context","source_id":"nysm-surficial-geology","confidence":"documented_geometry","scale_note":"1:250,000 source; not suitable for parcel conclusions","causal_claim":"none","last_reviewed":"2026-08-03"}},{"type":"Feature","geometry":{"type":"Polygon","coordinates":[[[-78.69827513542813,43.00598778359866],[-78.70030837076204,43.00530519936394],[-78.70226271941122,43.0047331807521],[-78.70406146405399,43.00404462094747],[-78.70562487309368,43.00364728460828],[-78.70632942925533,43.0031877493311],[-78.70867495737073,43.00244536576492],[-78.7101598558527,43.00210453948109],[-78.71179923903011,43.00204679743894],[-78.7122653575427,43.00256738256008],[-78.7124171350812,43.00348534273982],[-78.71170672241644,43.00514711515573],[-78.71045467426654,43.005777527492775],[-78.70669632248206,43.00812794892875],[-78.70536477724731,43.00904450451107],[-78.70434451500344,43.010072505407365],[-78.70121298721673,43.01190721489176],[-78.70019402408742,43.012710041153845],[-78.70011315100969,43.013284402291],[-78.7001884910583,43.01385820669008],[-78.70080909960475,43.01466195792481],[-78.70182125570354,43.01523692927852],[-78.70392817250502,43.01552880629561],[-78.70650697403413,43.01501300342233],[-78.70908588459892,43.014560165324916],[-78.71166588744309,43.013814609158906],[-78.7141654647837,43.01358932862307],[-78.71596360911042,43.01307617453407],[-78.71636640041787,43.01280646711373],[-78.71736654397834,43.01359328056732],[-78.71931285043695,43.014862508273914],[-78.72157410631422,43.01549568043603],[-78.72477813786527,43.014869061596315],[-78.72814123834924,43.01355287462802],[-78.73064419201414,43.01252128312467],[-78.73181352230218,43.01292428543824],[-78.73251369150553,43.01350016837924],[-78.73290025718299,43.01436090853953],[-78.7328195991793,43.014993808706144],[-78.73180130387847,43.01573836943792],[-78.72843723047143,43.017225768405815],[-78.72609066000543,43.01813966544178],[-78.7253055557863,43.0191151646003],[-78.7236586481671,43.020722000047876],[-78.72162490904347,43.02146354221925],[-78.72014096417233,43.02157939398451],[-78.71693869218961,43.02174663357002],[-78.71200844678667,43.02403630246038],[-78.70958056368063,43.02552424363695],[-78.7089492441087,43.026899809046995],[-78.70902175188176,43.02810846612564],[-78.70940729878964,43.02914039047157],[-78.7099496092827,43.030059178312264],[-78.7100972263719,43.03189566097657],[-78.71009270145292,43.032872718900755],[-78.70969667938165,43.03402005427445],[-78.70906677938325,43.03511195471825],[-78.70906105479283,43.036314145900135],[-78.70757169566279,43.03740241995409],[-78.70615984259967,43.038663735300865],[-78.70295167621765,43.03986621202631],[-78.699431047595,43.0410066858692],[-78.69694164556624,43.041214284556794],[-78.69696223588927,43.034253168613695],[-78.69694997685124,43.02937160372297],[-78.6969142283527,43.029009812087445],[-78.69694865441824,43.0261198520726],[-78.6969466530801,43.018707094968775],[-78.6969648499602,43.01691503171471],[-78.69693620142722,43.00647811271932],[-78.69827513542813,43.00598778359866]]]},"properties":{"feature_id":"geology-003","layer_type":"surficial_geology","material_code":"ls","unit_name":"Lacustrine Sand","report_context":"Regional geologic context","source_id":"nysm-surficial-geology","confidence":"documented_geometry","scale_note":"1:250,000 source; not suitable for parcel conclusions","causal_claim":"none","last_reviewed":"2026-08-03"}},{"type":"Feature","geometry":{"type":"Polygon","coordinates":[[[-78.76972606947204,43.0005691340775],[-78.77152268901209,43.0002262294055],[-78.77581679873617,42.9999403548072],[-78.77979988514855,42.999371985496936],[-78.78370285212264,42.99931934423734],[-78.7868265939569,42.99886021541145],[-78.78971770748045,42.9979450243449],[-78.79221973708357,42.99668252394082],[-78.79354944468075,42.99582354643477],[-78.79597213534976,42.99490574074515],[-78.79886391776279,42.993702176410785],[-78.80073959397899,42.992960019506896],[-78.8034737265452,42.99215774784219],[-78.80589587385832,42.99135679825596],[-78.807849225015,42.99061193800227],[-78.809176447407,42.990437147474125],[-78.80987852058524,42.99055329877557],[-78.81057913800859,42.99107016080063],[-78.81112253083626,42.99204695175195],[-78.81150928640866,42.99313700934227],[-78.8112715131207,42.99434243711019],[-78.81079827844776,42.99595188256329],[-78.80970166546776,42.99715443409874],[-78.80766905151785,42.99818558518349],[-78.80547963737006,42.99944701657905],[-78.80530638431436,42.999853452595985],[-78.80336804589375,43.000768842572654],[-78.8015695358531,43.0017425748742],[-78.79953510936058,43.00317431161545],[-78.79765939463661,43.00392095356685],[-78.79281376201934,43.005639551051615],[-78.79015894982217,43.00580867672022],[-78.78836388866901,43.00575115700727],[-78.78750548661367,43.00563555364722],[-78.78391490833666,43.00551591526602],[-78.78204269209608,43.00517272989012],[-78.78063913676627,43.00471046509075],[-78.77868792343078,43.00465345707276],[-78.77798254829823,43.005397083271426],[-78.77782336999232,43.00625770398505],[-78.77774294056556,43.00694915102976],[-78.77765875782197,43.00861312890723],[-78.77741942499271,43.01004813761589],[-78.77686620745155,43.0118851853883],[-78.77631406270865,43.01343407453817],[-78.77537243330316,43.01469420459678],[-78.77373081544656,43.01520762590021],[-78.77256176616059,43.0146924989271],[-78.77037676010134,43.014404468949984],[-78.76873535238836,43.01485928714335],[-78.76701638032871,43.01526261674416],[-78.76506339900371,43.01548905415374],[-78.76404918678705,43.01525685783064],[-78.76249204030002,43.0141061395116],[-78.76218321204878,43.01324744414082],[-78.76234529671727,43.01175648530844],[-78.76211643477765,43.010377439310254],[-78.76227584125742,43.00951683244181],[-78.76298391602634,43.00807992298286],[-78.76408230459361,43.0067066847669],[-78.76518127355575,43.00509931880925],[-78.76565544928985,43.003607073818124],[-78.76573911893362,43.00211419060877],[-78.76597619280298,43.0013680677252],[-78.76636983305241,43.0005087380898],[-78.76972606947204,43.0005691340775]]]},"properties":{"feature_id":"geology-004","layer_type":"surficial_geology","material_code":"tm","unit_name":"Till Moraine","report_context":"Regional geologic context","source_id":"nysm-surficial-geology","confidence":"documented_geometry","scale_note":"1:250,000 source; not suitable for parcel conclusions","causal_claim":"none","last_reviewed":"2026-08-03"}},{"type":"Feature","geometry":{"type":"MultiPolygon","coordinates":[[[[-78.80486205239731,42.953841040768864],[-78.80322709478726,42.952864532600536],[-78.8013586995631,42.951598640517574],[-78.79988030633099,42.95039178058861],[-78.7983861908487,42.94933757655985],[-78.81138008759316,42.94943735908588],[-78.81115260525866,42.949535904823726],[-78.8109398332008,42.94969374297997],[-78.81099248049881,42.95169527930006],[-78.81062295874162,42.952277353688096],[-78.8089677994977,42.952290588360356],[-78.80893837832818,42.95471791272356],[-78.80636430453598,42.954683679518595],[-78.80486205239731,42.953841040768864]]],[[[-78.82191655802987,42.96459416138368],[-78.82028179517228,42.963212726118286],[-78.81841320893693,42.961951627310285],[-78.81693299506559,42.961145721188224],[-78.81545302729774,42.960281263099624],[-78.81408148775631,42.95938006011634],[-78.8187045139597,42.95757481894127],[-78.81889204491422,42.95740843026228],[-78.81889152480092,42.95800659060223],[-78.82384552883337,42.95812799362007],[-78.82354094120049,42.965740157973286],[-78.82191655802987,42.96459416138368]]]]},"properties":{"feature_id":"geology-005","layer_type":"surficial_geology","material_code":"lsc","unit_name":"Lacustrine Silt and Clay","report_context":"Broad lacustrine silt and clay unit discussed in the 2005 USACE study","source_id":"nysm-surficial-geology","confidence":"documented_geometry","scale_note":"1:250,000 source; not suitable for parcel conclusions","causal_claim":"none","last_reviewed":"2026-08-03"}},{"type":"Feature","geometry":{"type":"Polygon","coordinates":[[[-78.69746107060134,42.99691576238691],[-78.69925319652405,42.997609580445754],[-78.70041860581878,42.9987018270461],[-78.70127264532302,42.9996195684466],[-78.70212627707714,43.0006543670368],[-78.70282351467264,43.00180677474745],[-78.70336135096854,43.003527083100145],[-78.70406146405399,43.00404462094747],[-78.70226271941122,43.0047331807521],[-78.70030837076204,43.00530519936394],[-78.69827513542813,43.00598778359866],[-78.69693620142722,43.00647811271932],[-78.69693798684861,42.996844338037654],[-78.69746107060134,42.99691576238691]]]},"properties":{"feature_id":"geology-006","layer_type":"surficial_geology","material_code":"tm","unit_name":"Till Moraine","report_context":"Regional geologic context","source_id":"nysm-surficial-geology","confidence":"documented_geometry","scale_note":"1:250,000 source; not suitable for parcel conclusions","causal_claim":"none","last_reviewed":"2026-08-03"}},{"type":"Feature","geometry":{"type":"Polygon","coordinates":[[[-78.74925506313039,42.96754144966221],[-78.75158958267495,42.96897747329024],[-78.75353602989257,42.96995349630524],[-78.75641634332409,42.97156507261579],[-78.75828587503959,42.9723139448031],[-78.76069987519838,42.97346354553468],[-78.7631923163233,42.97455648881233],[-78.76467274166829,42.975133490107055],[-78.7664631554103,42.976226977305316],[-78.76848449965809,42.97818168560105],[-78.77019429090105,42.979962058622924],[-78.77128037115804,42.98162793489778],[-78.77212829522387,42.98438211477884],[-78.7718873599139,42.98621783455761],[-78.77149237593093,42.98754092093259],[-78.76961259548696,42.9893181669398],[-78.76882973674299,42.989947242690036],[-78.76804487467531,42.99103557143128],[-78.76694865317468,42.992012608715434],[-78.76679539903445,42.99132436995733],[-78.76594085306213,42.99029009080662],[-78.765164175619,42.989253239520046],[-78.76494845232926,42.98911628657915],[-78.76508790010578,42.98885508417085],[-78.76548302982462,42.987532015076056],[-78.76540986099431,42.98626939528889],[-78.7651808175028,42.98494888451818],[-78.76464094740149,42.983282964793005],[-78.76347698886421,42.98161958944342],[-78.76231077937686,42.980586541495505],[-78.76090952679147,42.97972328500829],[-78.75904040833568,42.978803372161615],[-78.75693482560182,42.97845394001141],[-78.75537310162856,42.97868084775786],[-78.75256101967938,42.97948452632322],[-78.75146804302845,42.979596944856326],[-78.74959571975471,42.97947831981003],[-78.74819334202827,42.97896158957805],[-78.74702857685679,42.97758168899026],[-78.74672312897958,42.976034046284674],[-78.7468846620413,42.974714194776446],[-78.74720245750657,42.97327667112322],[-78.74736326896658,42.97212791468235],[-78.74666570563627,42.97109734136458],[-78.74581116608451,42.97017545364397],[-78.74511203223011,42.969487067094185],[-78.7446473489546,42.96862442299501],[-78.74467881898401,42.968454920453205],[-78.74602737749429,42.96845364154734],[-78.74602475650289,42.96693456984124],[-78.74850533721369,42.96693017446743],[-78.74925506313039,42.96754144966221]]]},"properties":{"feature_id":"geology-007","layer_type":"surficial_geology","material_code":"al","unit_name":"Recent Alluvium","report_context":"Regional geologic context","source_id":"nysm-surficial-geology","confidence":"documented_geometry","scale_note":"1:250,000 source; not suitable for parcel conclusions","causal_claim":"none","last_reviewed":"2026-08-03"}}]}