{
  "type": "FeatureCollection",
  "features": [
    {
      "type": "Feature",
      "properties": {
        "id": "cayuga-island-western-tip-extension",
        "recordId": "cayuga-island-manmade-extensions",
        "color": "#f28c00"
      },
      "geometry": {
        "type": "Polygon",
        "coordinates": [[
          [-78.9771627, 43.0720914], [-78.9768618, 43.072814],
          [-78.9757151, 43.0729446], [-78.9742881, 43.0731327],
          [-78.9733011, 43.0732345], [-78.97298, 43.07289],
          [-78.97312, 43.07242], [-78.9734431, 43.0718922],
          [-78.9755658, 43.0719192], [-78.9770155, 43.0719489],
          [-78.9771627, 43.0720914]
        ]]
      }
    },
    {
      "type": "Feature",
      "properties": {
        "id": "cayuga-island-south-shore-extension",
        "recordId": "cayuga-island-manmade-extensions",
        "color": "#f28c00"
      },
      "geometry": {
        "type": "Polygon",
        "coordinates": [[
          [-78.96532, 43.07275], [-78.96395, 43.07252],
          [-78.96255, 43.07249], [-78.96068, 43.07173],
          [-78.95802, 43.07148], [-78.95564, 43.07131],
          [-78.95431, 43.07142], [-78.95364, 43.07172],
          [-78.9543694, 43.07098], [-78.955636, 43.0710324],
          [-78.9579968, 43.071212], [-78.9594979, 43.0712515],
          [-78.9606902, 43.0714503], [-78.9608174, 43.0717529],
          [-78.9618775, 43.0716487], [-78.9618173, 43.0719712],
          [-78.9623439, 43.0721916], [-78.9639208, 43.0722564],
          [-78.9645995, 43.0722712], [-78.96532, 43.07275]
        ]]
      }
    },
    {
      "type": "Feature",
      "properties": {
        "id": "south-ogden-circa-1927-channel",
        "recordId": "south-ogden-former-river-channel",
        "color": "#d81b60"
      },
      "geometry": {
        "type": "Polygon",
        "coordinates": [[
          [-78.80835, 42.86413], [-78.80778, 42.86363],
          [-78.80712, 42.86299], [-78.80605, 42.86255],
          [-78.80472, 42.86246], [-78.80365, 42.86262],
          [-78.80242, 42.86268], [-78.80235, 42.86318],
          [-78.80363, 42.86302], [-78.80479, 42.86284],
          [-78.80583, 42.86289], [-78.80674, 42.86322],
          [-78.80738, 42.86382], [-78.80786, 42.86427],
          [-78.80835, 42.86413]
        ]]
      }
    }
  ]
}
