{"type":"FeatureCollection","name":"Amherst study boundary","description":"Official Erie County municipal boundary.","generated":"2026-08-03","features":[{"type":"Feature","geometry":{"type":"Polygon","coordinates":[[[-78.83011326324502,43.02975427560458],[-78.82979047819492,43.02993639220179],[-78.82955151854163,43.030037412475295],[-78.82923954517685,43.03011798309924],[-78.82896712933496,43.0301487500533],[-78.82846080068059,43.03014914967486],[-78.82774902220487,43.03009099397435],[-78.82656889322972,43.02993266571544],[-78.82610034046967,43.029904493802995],[-78.82574420876372,43.02993200086368],[-78.82543261910253,43.02999714006012],[-78.8251529709408,43.030091377676506],[-78.82485012971543,43.03024188432213],[-78.82462772077578,43.03038846158855],[-78.82444232451022,43.030560340737885],[-78.8243489004117,43.03070458778992],[-78.82429621086669,43.03085972426483],[-78.82428255386979,43.03106863962258],[-78.82222314947205,43.031073642707526],[-78.82218796149144,43.02428482891726],[-78.82226440813082,43.01495123611812],[-78.82241164444841,43.00037232358991],[-78.82257213896392,42.990912656284905],[-78.82297850163123,42.97969434388068],[-78.82306976587688,42.977695265533264],[-78.82384552883337,42.95812799362007],[-78.81889152480092,42.95800659060223],[-78.81889204491422,42.95740843026228],[-78.8187045139597,42.95757481894127],[-78.81391303403127,42.959445943588435],[-78.8090230227588,42.961392160587216],[-78.80895070548954,42.95898183196925],[-78.80787245255297,42.95898120828257],[-78.80783766576342,42.956472025683055],[-78.80397309087813,42.95644559848524],[-78.80399004998827,42.954657590099984],[-78.80893837832818,42.95471791272356],[-78.8089677994977,42.952290588360356],[-78.81062295874162,42.952277353688096],[-78.81099248049881,42.95169527930006],[-78.8109398332008,42.94969374297997],[-78.81115260525866,42.949535904823726],[-78.81138008759316,42.94943735908588],[-78.79860971136533,42.94934273001503],[-78.79206938721742,42.94919844335456],[-78.78569801067465,42.9491495193586],[-78.77974180137802,42.94913415658834],[-78.76584234516129,42.94913556719456],[-78.75529696580972,42.94908947200871],[-78.75308720982098,42.94910305973741],[-78.75001314021334,42.94909007134077],[-78.73681596904086,42.949118816325715],[-78.73718618465716,42.952472681048135],[-78.73816463109738,42.95667700144872],[-78.73816775268656,42.95680458631132],[-78.74339208060523,42.956827226143844],[-78.74460053105172,42.95681798442799],[-78.7445923514794,42.95421476654122],[-78.74911606349843,42.95685406343021],[-78.75318790136404,42.95685599614058],[-78.7531935198498,42.956521923924136],[-78.7540078748333,42.95651934068118],[-78.75482246911768,42.956280094112756],[-78.75481146011322,42.95684910303005],[-78.75543203214545,42.956852644186846],[-78.75543325151513,42.95829555112951],[-78.75540275040463,42.961426329395735],[-78.75544014023183,42.96695921429824],[-78.7500720232596,42.9669304745002],[-78.74602475650289,42.96693456984124],[-78.74602737749429,42.96845364154734],[-78.74455713601508,42.968455035851285],[-78.74455052902925,42.9689581841016],[-78.74437169725437,42.96898313044311],[-78.74437051878463,42.96870325986924],[-78.74331357572916,42.968873845157795],[-78.74338231256714,42.96908535442229],[-78.74424054482563,42.96991246315614],[-78.74428440261153,42.973835741649914],[-78.74278038888292,42.97383167295658],[-78.74277614777446,42.9739980106262],[-78.73948876593919,42.97397751873415],[-78.73950769585099,42.975920819373556],[-78.73780322991908,42.97590255344612],[-78.73770506771893,42.96690973637227],[-78.7357912724769,42.96694659944792],[-78.73568157235133,42.966778355649346],[-78.73569444213709,42.967072945309205],[-78.73480480074156,42.96708647332792],[-78.73479482231477,42.96682650708461],[-78.73394515910744,42.96696139072102],[-78.73392746975425,42.97004824037595],[-78.73166645296799,42.97160558066805],[-78.73012936061849,42.9723909297138],[-78.72966274687595,42.97239460028134],[-78.72967418165226,42.96952660960667],[-78.73319291754355,42.96895202304092],[-78.73321071532966,42.964740524659156],[-78.7338642754716,42.964634714883346],[-78.73386302956825,42.96450679834832],[-78.73212225589045,42.9647940777672],[-78.73208314190747,42.9627173923878],[-78.73203098597561,42.95618539586388],[-78.73199624186502,42.95416665181032],[-78.73087932358419,42.95416055132358],[-78.73015196935235,42.95107122170928],[-78.7324453583724,42.95104186137528],[-78.73175696733726,42.950195261747126],[-78.73164556557741,42.95007912158291],[-78.73143068983937,42.94964759937471],[-78.73138461165806,42.94951321009454],[-78.7313103588844,42.94910891676685],[-78.73128375345449,42.94852725386233],[-78.73120571873397,42.948305459110756],[-78.73111906249808,42.948195460100905],[-78.73052873306814,42.947726692146034],[-78.7301178172904,42.94730946774912],[-78.72985921055295,42.94712390282371],[-78.72977508627079,42.94708765438185],[-78.72960084652186,42.94705596610662],[-78.72851110126865,42.94703507324801],[-78.72806894318862,42.94682572816781],[-78.7274598116665,42.9464790422073],[-78.72678886443346,42.946257303374765],[-78.72600420367596,42.94591118617125],[-78.72572720030496,42.945854596052456],[-78.72474396195469,42.94585032718961],[-78.72472242819858,42.95112881813526],[-78.71982183847582,42.95117318021415],[-78.71341873169207,42.951203958642026],[-78.70588054386589,42.951236971634614],[-78.69694109960386,42.9512540951151],[-78.6969526927329,42.95197228741776],[-78.69695390435447,42.958458396496425],[-78.69692882504542,42.965132477857594],[-78.69693931067864,42.96880030453988],[-78.69692730103935,42.972933562000236],[-78.69694241684823,42.97582692959286],[-78.69692778507496,42.98056588731397],[-78.69696512904528,42.985624446614025],[-78.69696478222073,42.98770872059746],[-78.69692948431309,42.99898382814446],[-78.69694647456471,43.014797147711235],[-78.6969648499602,43.01691503171471],[-78.6969466530801,43.018707094968775],[-78.69694865441824,43.0261198520726],[-78.6969142283527,43.029009812087445],[-78.69694997685124,43.02937160372297],[-78.69696223588927,43.034253168613695],[-78.69691213610578,43.05271765963446],[-78.69692418975598,43.057728163495746],[-78.69694754302257,43.058723811477115],[-78.69690665702888,43.065967458806966],[-78.69691658968544,43.071346993773865],[-78.69689370537812,43.0741552915082],[-78.69687631393913,43.08626363645234],[-78.69694933008739,43.086273523936775],[-78.69710603381881,43.086254161720966],[-78.69770945254314,43.086378731867],[-78.69839400502046,43.08660852390732],[-78.69912850545728,43.08678099843416],[-78.69947857113274,43.08680602371817],[-78.69986132579827,43.086795674645906],[-78.70017569883416,43.08675249610379],[-78.70222634406635,43.08659124416306],[-78.70303461890487,43.08665693842607],[-78.70365439588733,43.08677289947915],[-78.70436597495089,43.086931288842976],[-78.7052889952563,43.087053422685706],[-78.7055229571283,43.0870490574235],[-78.70561744898451,43.087032850447926],[-78.70646677763075,43.087050103587494],[-78.7072879661325,43.08701697750645],[-78.70766766687191,43.08688486371824],[-78.70773164960909,43.08683233293733],[-78.70795341900062,43.0865755473684],[-78.70801704429607,43.08634705761547],[-78.70805383196716,43.086028052023096],[-78.70805345762608,43.08584353259383],[-78.70801813263259,43.08573930708855],[-78.707984305898,43.085432368763094],[-78.7081192380106,43.08459330795989],[-78.70807611586503,43.08433579539693],[-78.70819494693416,43.08408598088926],[-78.70841183229477,43.08375270276195],[-78.70845603004277,43.08361856540404],[-78.70862691749143,43.08343728825231],[-78.70876825990513,43.08323305026256],[-78.70926374867747,43.082752342681985],[-78.70958649471167,43.082479665805124],[-78.7099017004422,43.08240043362051],[-78.71015997603273,43.08239638867606],[-78.71064029271487,43.082279930167296],[-78.71083537987595,43.082274911336185],[-78.71123132834451,43.08232350103945],[-78.71144056520656,43.082354491338734],[-78.71154736535172,43.08241094870131],[-78.7121423624171,43.08255775928457],[-78.71297216470867,43.08287614463296],[-78.71402890246917,43.083180875290324],[-78.71427829096238,43.0831857210825],[-78.71455723589641,43.083218327041855],[-78.71487025314963,43.083202190877714],[-78.7149633721438,43.08321305896738],[-78.71559994579462,43.08308611060128],[-78.71648254217375,43.082500330368596],[-78.71688260582658,43.08206255875805],[-78.71705168127556,43.081922098709896],[-78.7173527947542,43.08161718562324],[-78.71780708125598,43.081383073723984],[-78.71852751149413,43.08111849163015],[-78.71892927173872,43.08103638848447],[-78.719029885064,43.08105204602481],[-78.71939977799481,43.08116753200932],[-78.71989549025307,43.08125370021382],[-78.72036380939679,43.08144314794841],[-78.72067311474146,43.08188145451736],[-78.72079622374275,43.08211348631339],[-78.7210059092836,43.08234302674527],[-78.7213694575816,43.08317875905304],[-78.72166822767454,43.083702462260725],[-78.72180377413731,43.08383572884942],[-78.72186952877973,43.08394504418364],[-78.72233604504697,43.08436839404192],[-78.72271917867411,43.08453359805359],[-78.72361743229136,43.08528531402461],[-78.7238390278459,43.08539342184689],[-78.72478900773974,43.085641936338256],[-78.72505959802696,43.08569683401534],[-78.72532180718657,43.085769548644336],[-78.72555224853292,43.085864279909174],[-78.72619452115184,43.0859804201916],[-78.72713700056636,43.08621520558013],[-78.7278014142743,43.086192418405986],[-78.72817930059819,43.086105511360955],[-78.72992836221293,43.085289064625485],[-78.73007009465813,43.08526042987585],[-78.73079013219355,43.08502249577929],[-78.73146861854877,43.0848336698995],[-78.73239564051174,43.08466715278662],[-78.7328472380923,43.084496119421416],[-78.73314743887612,43.08441204121103],[-78.7335429451196,43.08426678782476],[-78.73417821266794,43.08400013381649],[-78.73474764891094,43.08361972353492],[-78.73487740333161,43.0834874931488],[-78.73537577534213,43.08311916416053],[-78.73569932018732,43.08283716603959],[-78.73582157250024,43.082700142920196],[-78.73627403147933,43.08213261704316],[-78.73634952262813,43.08200835958171],[-78.73646157873266,43.08173141604321],[-78.73654587612452,43.08156634648341],[-78.73695011362386,43.08005707584894],[-78.73707811785843,43.07979863080059],[-78.73734244802876,43.079033799956996],[-78.73768667561926,43.07860837758045],[-78.7379104530933,43.07828878036421],[-78.738227806595,43.07797075722411],[-78.73832708637993,43.077828631513114],[-78.73869956738825,43.07748035063646],[-78.73876578078942,43.07739177339003],[-78.739257019987,43.07701416278579],[-78.73936029372229,43.07695777425997],[-78.739602593696,43.07675989051122],[-78.74008413095594,43.076427232906035],[-78.74022753397637,43.076344393321946],[-78.74103602571016,43.07562646585623],[-78.74139038681226,43.07496710966037],[-78.74148830246342,43.07466309914236],[-78.74152050912936,43.07445213913652],[-78.74147281001491,43.07427111461106],[-78.74141586680544,43.074148408469746],[-78.74128033674786,43.07401516486591],[-78.74093737416794,43.07381912711708],[-78.74081109670225,43.07365911820484],[-78.74074357452606,43.07359920430418],[-78.74057318358034,43.07337068835181],[-78.74043404558385,43.072746666007184],[-78.74033958995429,43.07239833359988],[-78.74033071990974,43.072222386151196],[-78.74027065189192,43.07197346907397],[-78.7400932010685,43.0715422503723],[-78.74008428807397,43.07117289274283],[-78.74004368692557,43.071028213094976],[-78.73997660943242,43.07095043599029],[-78.73985428893837,43.07087138995577],[-78.73972587699029,43.0705896404303],[-78.73968829243235,43.0703502955354],[-78.73969757456335,43.070129736474684],[-78.73963174931825,43.069822521152425],[-78.73961936266062,43.0695430274725],[-78.73967668720228,43.06927405705626],[-78.73977244163511,43.06903280129969],[-78.73994761144635,43.06874824942647],[-78.7402613466759,43.068502249764535],[-78.74063558266684,43.068325090283494],[-78.74101597464816,43.06817058486046],[-78.74124283991695,43.06815688231166],[-78.7421002905554,43.06815569594253],[-78.74241102922197,43.06820259492802],[-78.74343674755794,43.06849269301096],[-78.74383218112135,43.06855456049863],[-78.74409606971693,43.068573396677714],[-78.74493951513618,43.06875192743795],[-78.74626753091115,43.06908445837525],[-78.74667316062053,43.069276961140204],[-78.74737319848384,43.069520514457956],[-78.74773775269166,43.069576925102275],[-78.7491116268104,43.06954097492451],[-78.74942325225697,43.0695652172465],[-78.74963416500712,43.06954674701016],[-78.74972645654215,43.069589141708725],[-78.75037238147861,43.069552531357246],[-78.75056083837116,43.06952001650995],[-78.75219123447975,43.069381118530195],[-78.75304544579257,43.06937985492987],[-78.75340386660723,43.06940914790653],[-78.75376934983122,43.06946142226088],[-78.75439826910971,43.06968994760483],[-78.75509941553211,43.06999620260827],[-78.755979322012,43.07031966173822],[-78.75691658085103,43.07072536843073],[-78.7571764057704,43.070798013884236],[-78.75744949580285,43.070915938640354],[-78.75762081566384,43.07095066125369],[-78.75933992267849,43.07107012910777],[-78.76042042563647,43.071014601475476],[-78.76136219690922,43.07087081955798],[-78.76244124855651,43.07064002883679],[-78.76269215889394,43.07054118845088],[-78.76310117137649,43.070423249384305],[-78.76331201760682,43.07038244698246],[-78.7636335086624,43.07041110747524],[-78.76462285510803,43.07038998119903],[-78.76495881811593,43.070414499347095],[-78.76588876663483,43.07039208448366],[-78.76605386926389,43.07038633339626],[-78.76620488014082,43.070348721676076],[-78.76701506030649,43.07032410188286],[-78.76715904784218,43.0702909451262],[-78.76758695515925,43.070249785971825],[-78.7681338386135,43.07024684630152],[-78.7685705715097,43.07017891720168],[-78.7689690216968,43.070137114607206],[-78.7696966796103,43.069903724433814],[-78.76992387109921,43.06984952093913],[-78.77032276403392,43.06979432318026],[-78.77041517609398,43.06972387607533],[-78.77064141805224,43.069665529574],[-78.7715991877096,43.06926097650728],[-78.77232390240863,43.06868528575971],[-78.77243385278588,43.06853866767554],[-78.77276515160233,43.06826612713358],[-78.77322572344069,43.067743713052614],[-78.77345493253104,43.0675951674205],[-78.77414051856742,43.067072704811665],[-78.77444679089466,43.06688045715051],[-78.77456201445206,43.06678354579113],[-78.7747609683644,43.06667966222879],[-78.7748467095491,43.066573196598654],[-78.77534183347231,43.06633983005102],[-78.7757999577037,43.06608731699699],[-78.77658338192366,43.065760499937916],[-78.77676517918307,43.0657008718768],[-78.77762530539505,43.065515223623265],[-78.77877349245526,43.06545633469466],[-78.77927585784025,43.06544793020899],[-78.78020975653955,43.06551560830559],[-78.78120933886429,43.06564319953733],[-78.78182678721501,43.065776576377544],[-78.7822887145612,43.06585328654771],[-78.78324569116684,43.06611022181959],[-78.78432460997593,43.066324735357775],[-78.78467558801185,43.066367689909036],[-78.78484729354788,43.06637081743397],[-78.78660783319376,43.066594067142844],[-78.78785786554664,43.06662715261648],[-78.78897401474876,43.06663099670331],[-78.79112047679757,43.06629854971751],[-78.79172893810116,43.06625628635316],[-78.79211854740669,43.06624597291626],[-78.79245709048983,43.066207270857184],[-78.79438635358491,43.06611386973556],[-78.79583138444427,43.06612389943488],[-78.79609250222971,43.06615153820995],[-78.79698279417002,43.066186564154506],[-78.7973821033417,43.0661357436678],[-78.7989140243403,43.06625085141907],[-78.79971901295404,43.06636525762149],[-78.80023459288613,43.06638864651435],[-78.80061933695094,43.06631484931252],[-78.8014608160134,43.0660385394561],[-78.80195450724642,43.06583181253771],[-78.80380280053002,43.064809274877874],[-78.80408073896116,43.06457140050717],[-78.80487522038973,43.06410959299835],[-78.80492972371748,43.064052224390075],[-78.80548091066866,43.06370233660266],[-78.8055515927782,43.0635866305555],[-78.80578127641444,43.0634606555169],[-78.80616440272937,43.06321571202419],[-78.8063732724276,43.06302631223513],[-78.80686418021202,43.06244572676671],[-78.80708732592646,43.062067332270146],[-78.80708988675096,43.06199977490972],[-78.80718023890282,43.061758473074875],[-78.80721195157598,43.06147547037446],[-78.80725574936653,43.061305269072754],[-78.8070808592881,43.06028903305721],[-78.806960057725,43.05986329409542],[-78.80692709129684,43.059286474332],[-78.80683487010246,43.05913610209968],[-78.80689814180727,43.05904268926957],[-78.80686492516475,43.058911737638894],[-78.80666013974798,43.05855201350399],[-78.80653798366596,43.058400986036446],[-78.80591622554368,43.05797040492574],[-78.80553054653699,43.057634352708966],[-78.80497628346664,43.05697998803794],[-78.8046688241717,43.05654193138857],[-78.80445801042669,43.05592531255994],[-78.80442704103841,43.055501454835685],[-78.80444708740681,43.05535325073823],[-78.80453369810813,43.05524711768738],[-78.80459116217689,43.0550995271802],[-78.80495678804562,43.054683462761346],[-78.80521184145722,43.054463135018395],[-78.80532173744949,43.05433017668485],[-78.8059783572919,43.053942024813395],[-78.80676685844918,43.05367812557074],[-78.80755938906336,43.053495127770766],[-78.80775479654893,43.05347177910677],[-78.80858433974858,43.053303106588224],[-78.80900888206568,43.05314930312345],[-78.80956110963041,43.05299318789429],[-78.81024391237888,43.052736003805784],[-78.81185529703733,43.052046489704956],[-78.81205288831941,43.051978185817184],[-78.81272478142007,43.05181119755298],[-78.81340164875498,43.05172478088724],[-78.81407976475131,43.05160268823736],[-78.81435793373072,43.05157227444609],[-78.81482356423483,43.05152710340812],[-78.81662135207146,43.0515433454083],[-78.81707991172706,43.05148890554346],[-78.8180672718018,43.0515122648359],[-78.81916651635994,43.0515693259698],[-78.81991525941321,43.05157464010325],[-78.82073971844171,43.05156780186817],[-78.82134754392861,43.05152982724969],[-78.82166099372876,43.05155834156764],[-78.82193172652995,43.05154095792632],[-78.82278478586062,43.051548093607714],[-78.82325044588583,43.05151213484563],[-78.82403283674235,43.05162608847668],[-78.82429309215952,43.051684861864416],[-78.82446527870313,43.051706120378526],[-78.82554868293279,43.05177618665196],[-78.82594358868029,43.051824409393724],[-78.82632529186878,43.05184519332195],[-78.82701499971552,43.05182213308206],[-78.82794799123748,43.05170043049253],[-78.82816545790098,43.05169552050379],[-78.82851136411915,43.051652580260615],[-78.82953375155596,43.051320799568884],[-78.83008880493149,43.051074719570416],[-78.83048841563219,43.05077615442754],[-78.83085638009945,43.050526358865575],[-78.8315191232971,43.049962443472424],[-78.83159688478142,43.04987411634391],[-78.8315918804663,43.04979285568306],[-78.83169959078937,43.0497185392337],[-78.83180893475298,43.04957630994847],[-78.83194121450454,43.049443963310424],[-78.8321325197852,43.049105373526324],[-78.8322481054363,43.04900840303347],[-78.83225885608957,43.04889143864568],[-78.83240481105175,43.04856117842434],[-78.83246055079302,43.048467767695904],[-78.83249769822079,43.047820148557726],[-78.83239585922038,43.047273310090496],[-78.83230985697762,43.04716374495545],[-78.83221684473443,43.04682851688894],[-78.8321519789793,43.04674634372792],[-78.83201769232407,43.04650073562688],[-78.83199158972657,43.04640132933855],[-78.83183152239494,43.04602440352576],[-78.83154140795045,43.04551468492083],[-78.83120516378914,43.0450400490016],[-78.83114242186281,43.04490848210157],[-78.83099992499086,43.04470300497354],[-78.83072435605872,43.044206971737694],[-78.83057977817361,43.04406940781222],[-78.83014463982595,43.043417320659216],[-78.8300502628622,43.04332527730828],[-78.82992273935417,43.04312045245198],[-78.82983586392615,43.04303316698302],[-78.82977843350412,43.042937614056086],[-78.82968450834059,43.042836624605734],[-78.82944847587652,43.04251267703379],[-78.82880639596848,43.04202327088691],[-78.82859776209605,43.04176717202352],[-78.82800722407116,43.04130094579923],[-78.82720546912495,43.040403373394696],[-78.82707959938064,43.04013990651413],[-78.82675838069473,43.03967447170185],[-78.82661763204042,43.03919460414811],[-78.82633311018297,43.03652825151771],[-78.82625336536327,43.03622522958542],[-78.82606689189966,43.03577596929676],[-78.82576360435127,43.03522099013146],[-78.8256581175495,43.03479112090129],[-78.82557292070197,43.034641077510635],[-78.8255595274639,43.034564279098696],[-78.82547161130881,43.0344454659727],[-78.82547871756951,43.0341124069179],[-78.82558727003946,43.03377230106097],[-78.82621312209665,43.03254619112696],[-78.82635320072488,43.03237750591452],[-78.82646470455397,43.03219960714171],[-78.82689037952245,43.031784386135634],[-78.82793950290565,43.031079732235995],[-78.82860416529623,43.030695904319494],[-78.82881075173256,43.030560328533255],[-78.8293357159401,43.030318074911946],[-78.82975463458149,43.03009185162422],[-78.83011326324502,43.02975427560458]]]},"properties":{"feature_id":"town-of-amherst","layer_type":"study_boundary","name":"Town of Amherst","source_id":"erie-amherst-boundary","confidence":"documented_geometry","last_reviewed":"2026-08-03"}}]}