{"type":"FeatureCollection","name":"Neighborhood context","description":"Source-aligned, simplified planning overlays.","generated":"2026-08-03","features":[{"type":"Feature","geometry":{"type":"Polygon","coordinates":[[[-78.809,43.0425],[-78.769,43.0425],[-78.769,43.0],[-78.809,43.0],[-78.809,43.0425]]]},"properties":{"feature_id":"audubon-study-area-context","layer_type":"neighborhood_context","name":"Audubon Development Plan study area","source_id":"amherst-audubon-plan","confidence":"source_aligned_approximation","boundary_note":"Simplified orientation overlay; not a zoning or surveyed boundary","stated_limits":"UB North Campus and Ellicott Creek; Campbell Boulevard; Sweet Home Road; North French Road","causal_claim":"none","last_reviewed":"2026-08-03"}}]}